{
"type": "FeatureCollection",
"name": "municipal_coca_2023",
"crs": { "type": "name", "properties": { "name": "urn:ogc:def:crs:OGC:1.3:CRS84" } },
"features": [
{ "type": "Feature", "properties": { "gid": "COL.23.9_2", "name": "Convención", "municipio": "Convención", "departamento": "NortedeSantander", "year": 2023, "predicted_ha": 1161.4461364927888, "official_ha": 2034.35, "ratio": 0.57091755916768938 }, "geometry": { "type": "MultiPolygon", "coordinates": [ [ [ [ -73.3484, 8.3939 ], [ -73.3454, 8.4096 ], [ -73.3382, 8.4184 ], [ -73.3407, 8.4245 ], [ -73.3397, 8.4306 ], [ -73.3438, 8.4358 ], [ -73.3483, 8.4374 ], [ -73.3522, 8.4422 ], [ -73.3583, 8.454 ], [ -73.3649, 8.4587 ], [ -73.3751, 8.4588 ], [ -73.3828, 8.467 ], [ -73.3852, 8.4656 ], [ -73.3882, 8.4595 ], [ -73.3919, 8.4581 ], [ -73.3969, 8.4588 ], [ -73.4065, 8.4564 ], [ -73.4144, 8.4607 ], [ -73.4155, 8.4685 ], [ -73.4089, 8.4744 ], [ -73.4125, 8.4894 ], [ -73.4092, 8.4939 ], [ -73.4062, 8.5051 ], [ -73.4012, 8.5084 ], [ -73.405, 8.5125 ], [ -73.4047, 8.5228 ], [ -73.4083, 8.5272 ], [ -73.4061, 8.5359 ], [ -73.4062, 8.5452 ], [ -73.3948, 8.5567 ], [ -73.394, 8.5607 ], [ -73.3909, 8.5644 ], [ -73.3868, 8.5668 ], [ -73.3816, 8.5676 ], [ -73.3757, 8.5772 ], [ -73.3718, 8.5782 ], [ -73.3715, 8.5816 ], [ -73.3686, 8.5831 ], [ -73.368, 8.5892 ], [ -73.3633, 8.5897 ], [ -73.3684, 8.5979 ], [ -73.3702, 8.5985 ], [ -73.3694, 8.6067 ], [ -73.372, 8.6136 ], [ -73.3744, 8.6174 ], [ -73.3774, 8.6192 ], [ -73.3786, 8.6234 ], [ -73.3828, 8.6262 ], [ -73.382, 8.6419 ], [ -73.3796, 8.6465 ], [ -73.3761, 8.6506 ], [ -73.3733, 8.6502 ], [ -73.3738, 8.6478 ], [ -73.3719, 8.6469 ], [ -73.367, 8.6482 ], [ -73.3625, 8.6506 ], [ -73.3601, 8.6551 ], [ -73.3562, 8.6541 ], [ -73.349, 8.6556 ], [ -73.3458, 8.6587 ], [ -73.3399, 8.6557 ], [ -73.3313, 8.6594 ], [ -73.3165, 8.6762 ], [ -73.3069, 8.6811 ], [ -73.3081, 8.684 ], [ -73.3061, 8.6881 ], [ -73.3079, 8.6972 ], [ -73.3069, 8.7038 ], [ -73.3132, 8.7117 ], [ -73.3103, 8.7183 ], [ -73.3127, 8.7253 ], [ -73.309, 8.7298 ], [ -73.3083, 8.7335 ], [ -73.3055, 8.735 ], [ -73.3093, 8.7422 ], [ -73.3063, 8.7453 ], [ -73.3076, 8.75 ], [ -73.3065, 8.7539 ], [ -73.2955, 8.7645 ], [ -73.2987, 8.7757 ], [ -73.2954, 8.78 ], [ -73.2974, 8.7898 ], [ -73.295, 8.7966 ], [ -73.2997, 8.8025 ], [ -73.3002, 8.8074 ], [ -73.2954, 8.815 ], [ -73.2979, 8.8268 ], [ -73.291, 8.8329 ], [ -73.279, 8.8321 ], [ -73.2706, 8.8358 ], [ -73.2664, 8.836 ], [ -73.2619, 8.8416 ], [ -73.2591, 8.8414 ], [ -73.2562, 8.8386 ], [ -73.2524, 8.8386 ], [ -73.2489, 8.8414 ], [ -73.2499, 8.8435 ], [ -73.2475, 8.8477 ], [ -73.2434, 8.8479 ], [ -73.2382, 8.8545 ], [ -73.2372, 8.8673 ], [ -73.2398, 8.8758 ], [ -73.2395, 8.8849 ], [ -73.243, 8.8884 ], [ -73.2422, 8.8941 ], [ -73.245, 8.8952 ], [ -73.246, 8.8985 ], [ -73.2424, 8.8997 ], [ -73.2408, 8.9028 ], [ -73.247, 8.9075 ], [ -73.2459, 8.9146 ], [ -73.2505, 8.9185 ], [ -73.2512, 8.9222 ], [ -73.2578, 8.9215 ], [ -73.2582, 8.923 ], [ -73.2566, 8.9267 ], [ -73.2536, 8.9264 ], [ -73.2517, 8.9294 ], [ -73.2564, 8.938 ], [ -73.254, 8.9447 ], [ -73.25, 8.9447 ], [ -73.2487, 8.9553 ], [ -73.2438, 8.9581 ], [ -73.2455, 8.9638 ], [ -73.2425, 8.9689 ], [ -73.2429, 8.9741 ], [ -73.2402, 8.9769 ], [ -73.246, 8.9879 ], [ -73.2507, 9.0017 ], [ -73.2511, 9.0073 ], [ -73.2468, 9.0082 ], [ -73.2445, 9.0124 ], [ -73.2454, 9.0159 ], [ -73.2419, 9.017 ], [ -73.2415, 9.0199 ], [ -73.2384, 9.0207 ], [ -73.2377, 9.0233 ], [ -73.2404, 9.026 ], [ -73.2351, 9.0321 ], [ -73.231, 9.0419 ], [ -73.2282, 9.037 ], [ -73.2251, 9.0411 ], [ -73.2202, 9.0408 ], [ -73.2194, 9.0452 ], [ -73.2172, 9.047 ], [ -73.2181, 9.052 ], [ -73.2148, 9.0546 ], [ -73.212, 9.0606 ], [ -73.2076, 9.06 ], [ -73.1958, 9.0645 ], [ -73.1955, 9.0605 ], [ -73.1927, 9.0605 ], [ -73.1903, 9.0742 ], [ -73.1868, 9.0737 ], [ -73.1827, 9.0758 ], [ -73.1849, 9.0777 ], [ -73.1851, 9.0801 ], [ -73.1824, 9.0814 ], [ -73.1785, 9.0873 ], [ -73.1668, 9.0918 ], [ -73.1603, 9.1037 ], [ -73.1541, 9.1068 ], [ -73.1552, 9.1103 ], [ -73.1499, 9.109 ], [ -73.1455, 9.1146 ], [ -73.1406, 9.1147 ], [ -73.1424, 9.1208 ], [ -73.1336, 9.1167 ], [ -73.1279, 9.1187 ], [ -73.1273, 9.1167 ], [ -73.1219, 9.1159 ], [ -73.1209, 9.1171 ], [ -73.1228, 9.1241 ], [ -73.1194, 9.1254 ], [ -73.1156, 9.1304 ], [ -73.1103, 9.1261 ], [ -73.1074, 9.126 ], [ -73.0984, 9.1319 ], [ -73.0906, 9.1294 ], [ -73.0829, 9.1366 ], [ -73.0787, 9.1369 ], [ -73.0749, 9.1342 ], [ -73.0712, 9.1386 ], [ -73.0618, 9.1383 ], [ -73.0599, 9.1447 ], [ -73.0547, 9.1502 ], [ -73.0592, 9.1531 ], [ -73.0602, 9.1625 ], [ -73.0665, 9.1681 ], [ -73.0715, 9.1699 ], [ -73.0764, 9.1797 ], [ -73.0717, 9.1854 ], [ -73.074, 9.1942 ], [ -73.073, 9.2026 ], [ -73.0742, 9.2043 ], [ -73.071, 9.2099 ], [ -73.0714, 9.2215 ], [ -73.0666, 9.2235 ], [ -73.0592, 9.2238 ], [ -73.058, 9.2272 ], [ -73.0529, 9.2294 ], [ -73.0455, 9.2384 ], [ -73.038, 9.236 ], [ -73.0259, 9.2395 ], [ -73.0243, 9.2426 ], [ -73.0272, 9.2476 ], [ -73.0212, 9.253 ], [ -73.0244, 9.2593 ], [ -73.0226, 9.2635 ], [ -73.0056, 9.2761 ], [ -73.0026, 9.2744 ], [ -72.9964, 9.2746 ], [ -72.9937, 9.2704 ], [ -72.9971, 9.2597 ], [ -72.9925, 9.2554 ], [ -72.9863, 9.2554 ], [ -72.9852, 9.2536 ], [ -72.9889, 9.2455 ], [ -72.9875, 9.2306 ], [ -72.9892, 9.2287 ], [ -72.9954, 9.2272 ], [ -72.9961, 9.2223 ], [ -72.9933, 9.2208 ], [ -72.9852, 9.2236 ], [ -72.9787, 9.2164 ], [ -72.9704, 9.2137 ], [ -72.9689, 9.2076 ], [ -72.964, 9.2001 ], [ -72.9619, 9.1858 ], [ -72.9557, 9.181 ], [ -72.9581, 9.1762 ], [ -72.9626, 9.173 ], [ -72.9648, 9.1569 ], [ -72.9725, 9.1551 ], [ -72.9864, 9.146 ], [ -72.9908, 9.1471 ], [ -72.9924, 9.1453 ], [ -73.0004, 9.1429 ], [ -73.0031, 9.1465 ], [ -73.0079, 9.1478 ], [ -73.0092, 9.1466 ], [ -73.0056, 9.1435 ], [ -73.0077, 9.1411 ], [ -73.0078, 9.1381 ], [ -73.0102, 9.1366 ], [ -73.0074, 9.1343 ], [ -73.0071, 9.1312 ], [ -73.0135, 9.1302 ], [ -73.0143, 9.1282 ], [ -73.011, 9.126 ], [ -73.0156, 9.1221 ], [ -73.0099, 9.1167 ], [ -73.0067, 9.118 ], [ -73.0048, 9.1141 ], [ -73.0066, 9.1125 ], [ -73.0042, 9.1099 ], [ -73.0065, 9.1108 ], [ -73.0038, 9.1028 ], [ -73.0064, 9.1001 ], [ -73.0029, 9.0977 ], [ -73.0037, 9.0949 ], [ -73.0057, 9.0939 ], [ -73.0053, 9.0884 ], [ -73.0023, 9.0851 ], [ -73.0005, 9.0851 ], [ -73.0002, 9.0827 ], [ -73.0015, 9.0806 ], [ -73.0042, 9.0806 ], [ -73.0017, 9.076 ], [ -73.0084, 9.0707 ], [ -73.0082, 9.065 ], [ -73.0115, 9.0632 ], [ -73.0127, 9.0569 ], [ -73.0204, 9.0554 ], [ -73.0246, 9.0599 ], [ -73.0325, 9.059 ], [ -73.0404, 9.0774 ], [ -73.0449, 9.0803 ], [ -73.0508, 9.0742 ], [ -73.065, 9.0685 ], [ -73.0683, 9.0554 ], [ -73.0749, 9.0553 ], [ -73.0817, 9.053 ], [ -73.0968, 9.0528 ], [ -73.1034, 9.0495 ], [ -73.1166, 9.0376 ], [ -73.1192, 9.0305 ], [ -73.1189, 9.0258 ], [ -73.1288, 9.0176 ], [ -73.1347, 9.0066 ], [ -73.1343, 8.998 ], [ -73.1377, 8.9859 ], [ -73.1432, 8.9816 ], [ -73.1438, 8.9784 ], [ -73.146, 8.9769 ], [ -73.1444, 8.9684 ], [ -73.1501, 8.9675 ], [ -73.154, 8.965 ], [ -73.1542, 8.9607 ], [ -73.1597, 8.9506 ], [ -73.1595, 8.9426 ], [ -73.1613, 8.9344 ], [ -73.1595, 8.9254 ], [ -73.1486, 8.9193 ], [ -73.1471, 8.9127 ], [ -73.1337, 8.9069 ], [ -73.1344, 8.8985 ], [ -73.1497, 8.8912 ], [ -73.1468, 8.8787 ], [ -73.154, 8.8788 ], [ -73.1562, 8.8773 ], [ -73.1546, 8.8647 ], [ -73.1575, 8.857 ], [ -73.1633, 8.8564 ], [ -73.1749, 8.846 ], [ -73.1825, 8.8414 ], [ -73.1906, 8.8315 ], [ -73.196, 8.8218 ], [ -73.2131, 8.8084 ], [ -73.2136, 8.8038 ], [ -73.2117, 8.8 ], [ -73.2141, 8.796 ], [ -73.2154, 8.7869 ], [ -73.2218, 8.7841 ], [ -73.2283, 8.7747 ], [ -73.231, 8.7664 ], [ -73.2343, 8.7632 ], [ -73.2348, 8.7595 ], [ -73.2316, 8.7502 ], [ -73.2333, 8.7405 ], [ -73.2461, 8.7302 ], [ -73.2457, 8.719 ], [ -73.2487, 8.7135 ], [ -73.2467, 8.7107 ], [ -73.2433, 8.6944 ], [ -73.2442, 8.6909 ], [ -73.2424, 8.6871 ], [ -73.2482, 8.6825 ], [ -73.2503, 8.6746 ], [ -73.2508, 8.6646 ], [ -73.2539, 8.6589 ], [ -73.2738, 8.6413 ], [ -73.2775, 8.6319 ], [ -73.289, 8.6245 ], [ -73.297, 8.6238 ], [ -73.2987, 8.6223 ], [ -73.3047, 8.5994 ], [ -73.3025, 8.5913 ], [ -73.3092, 8.5854 ], [ -73.3159, 8.5657 ], [ -73.3128, 8.5611 ], [ -73.3129, 8.5533 ], [ -73.2953, 8.5431 ], [ -73.2978, 8.5222 ], [ -73.2921, 8.5179 ], [ -73.2954, 8.5099 ], [ -73.29, 8.5053 ], [ -73.2914, 8.4995 ], [ -73.284, 8.4866 ], [ -73.2871, 8.4894 ], [ -73.2935, 8.4884 ], [ -73.2976, 8.4841 ], [ -73.2997, 8.4839 ], [ -73.2995, 8.4798 ], [ -73.3019, 8.4822 ], [ -73.3063, 8.4822 ], [ -73.3077, 8.48 ], [ -73.3065, 8.4771 ], [ -73.3132, 8.477 ], [ -73.3149, 8.4741 ], [ -73.3135, 8.4688 ], [ -73.3181, 8.4661 ], [ -73.3195, 8.4633 ], [ -73.3186, 8.4583 ], [ -73.3197, 8.4573 ], [ -73.3204, 8.4586 ], [ -73.3225, 8.4545 ], [ -73.3239, 8.4547 ], [ -73.3234, 8.4527 ], [ -73.3255, 8.4529 ], [ -73.3252, 8.4492 ], [ -73.3266, 8.4491 ], [ -73.3258, 8.4479 ], [ -73.3281, 8.4429 ], [ -73.3268, 8.4403 ], [ -73.3295, 8.4383 ], [ -73.3302, 8.433 ], [ -73.3342, 8.4316 ], [ -73.3369, 8.427 ], [ -73.3364, 8.4191 ], [ -73.3243, 8.4124 ], [ -73.3232, 8.4074 ], [ -73.3262, 8.4022 ], [ -73.3322, 8.3969 ], [ -73.3372, 8.3958 ], [ -73.3373, 8.3932 ], [ -73.3452, 8.3914 ], [ -73.3484, 8.3939 ] ] ] ] } },
{ "type": "Feature", "properties": { "gid": "COL.23.12_2", "name": "ElCarmen", "municipio": "ElCarmen", "departamento": "NortedeSantander", "year": 2023, "predicted_ha": 47.245022936314342, "official_ha": 874.96, "ratio": 0.053996780351461028 }, "geometry": { "type": "MultiPolygon", "coordinates": [ [ [ [ -73.4923, 8.4219 ], [ -73.4873, 8.4365 ], [ -73.4734, 8.4499 ], [ -73.4733, 8.4604 ], [ -73.4782, 8.4705 ], [ -73.4863, 8.4711 ], [ -73.4937, 8.4776 ], [ -73.4984, 8.4794 ], [ -73.5173, 8.4824 ], [ -73.52, 8.4814 ], [ -73.523, 8.4836 ], [ -73.5294, 8.4788 ], [ -73.5476, 8.4724 ], [ -73.5511, 8.4744 ], [ -73.5518, 8.4815 ], [ -73.5584, 8.4814 ], [ -73.5628, 8.4915 ], [ -73.5741, 8.4908 ], [ -73.5775, 8.4956 ], [ -73.5804, 8.4968 ], [ -73.5806, 8.4993 ], [ -73.5783, 8.5047 ], [ -73.5727, 8.508 ], [ -73.5639, 8.5061 ], [ -73.5577, 8.5078 ], [ -73.5524, 8.5063 ], [ -73.554, 8.5076 ], [ -73.5532, 8.5093 ], [ -73.548, 8.5131 ], [ -73.5457, 8.5177 ], [ -73.5439, 8.5172 ], [ -73.5431, 8.5198 ], [ -73.5345, 8.5246 ], [ -73.5317, 8.5283 ], [ -73.5284, 8.5291 ], [ -73.5198, 8.5265 ], [ -73.5164, 8.527 ], [ -73.5153, 8.5296 ], [ -73.5173, 8.5328 ], [ -73.5171, 8.5382 ], [ -73.5228, 8.5401 ], [ -73.5267, 8.548 ], [ -73.5305, 8.5512 ], [ -73.5352, 8.5526 ], [ -73.5388, 8.5609 ], [ -73.5471, 8.5643 ], [ -73.5454, 8.5695 ], [ -73.5474, 8.5829 ], [ -73.5401, 8.5914 ], [ -73.5406, 8.5931 ], [ -73.5469, 8.5964 ], [ -73.5474, 8.6063 ], [ -73.5458, 8.6112 ], [ -73.5474, 8.6162 ], [ -73.5424, 8.6246 ], [ -73.5363, 8.6251 ], [ -73.5339, 8.628 ], [ -73.5273, 8.6311 ], [ -73.5227, 8.6367 ], [ -73.5197, 8.6451 ], [ -73.522, 8.6573 ], [ -73.5145, 8.6629 ], [ -73.5144, 8.6723 ], [ -73.507, 8.6797 ], [ -73.5078, 8.685 ], [ -73.5052, 8.6867 ], [ -73.5051, 8.6888 ], [ -73.5029, 8.6897 ], [ -73.5017, 8.6883 ], [ -73.5, 8.69 ], [ -73.4974, 8.6883 ], [ -73.4922, 8.6932 ], [ -73.4929, 8.6953 ], [ -73.4901, 8.6979 ], [ -73.4901, 8.7005 ], [ -73.4877, 8.7014 ], [ -73.486, 8.6987 ], [ -73.4821, 8.703 ], [ -73.4772, 8.7025 ], [ -73.4758, 8.7053 ], [ -73.4719, 8.7073 ], [ -73.4736, 8.7164 ], [ -73.4715, 8.7265 ], [ -73.4631, 8.7455 ], [ -73.4573, 8.7507 ], [ -73.4446, 8.7558 ], [ -73.4398, 8.761 ], [ -73.4176, 8.7631 ], [ -73.4132, 8.7678 ], [ -73.4156, 8.7757 ], [ -73.4106, 8.7834 ], [ -73.4167, 8.7865 ], [ -73.4241, 8.7978 ], [ -73.426, 8.8061 ], [ -73.428, 8.8088 ], [ -73.4277, 8.82 ], [ -73.4295, 8.8239 ], [ -73.4314, 8.8247 ], [ -73.4294, 8.836 ], [ -73.443, 8.8478 ], [ -73.4494, 8.8696 ], [ -73.4487, 8.8711 ], [ -73.4399, 8.8695 ], [ -73.434, 8.8713 ], [ -73.4307, 8.8777 ], [ -73.4309, 8.8817 ], [ -73.4257, 8.9012 ], [ -73.4273, 8.9135 ], [ -73.4318, 8.9244 ], [ -73.4308, 8.9391 ], [ -73.4331, 8.9482 ], [ -73.4321, 8.951 ], [ -73.4341, 8.9528 ], [ -73.4345, 8.9598 ], [ -73.4376, 8.9664 ], [ -73.4371, 8.9714 ], [ -73.4394, 8.9772 ], [ -73.4378, 8.9814 ], [ -73.4379, 8.9938 ], [ -73.4359, 8.9961 ], [ -73.4366, 8.9991 ], [ -73.4211, 9.0156 ], [ -73.4227, 9.0276 ], [ -73.4172, 9.0303 ], [ -73.4178, 9.0444 ], [ -73.4168, 9.0485 ], [ -73.4118, 9.0527 ], [ -73.4163, 9.06 ], [ -73.4147, 9.0721 ], [ -73.4168, 9.0885 ], [ -73.4214, 9.0954 ], [ -73.4276, 9.0993 ], [ -73.4286, 9.103 ], [ -73.4269, 9.116 ], [ -73.4236, 9.1257 ], [ -73.4158, 9.1321 ], [ -73.4145, 9.1379 ], [ -73.4154, 9.1457 ], [ -73.4116, 9.1552 ], [ -73.4034, 9.1636 ], [ -73.3879, 9.1545 ], [ -73.3798, 9.1541 ], [ -73.3709, 9.1598 ], [ -73.3691, 9.1695 ], [ -73.3661, 9.1762 ], [ -73.3657, 9.1843 ], [ -73.3614, 9.1915 ], [ -73.3643, 9.1993 ], [ -73.359, 9.2056 ], [ -73.3567, 9.2156 ], [ -73.3529, 9.218 ], [ -73.347, 9.2116 ], [ -73.3464, 9.2068 ], [ -73.3497, 9.2002 ], [ -73.3511, 9.1884 ], [ -73.3479, 9.1854 ], [ -73.3472, 9.1738 ], [ -73.3428, 9.1721 ], [ -73.3413, 9.1741 ], [ -73.3381, 9.1743 ], [ -73.33, 9.1701 ], [ -73.3211, 9.1712 ], [ -73.3166, 9.1683 ], [ -73.3142, 9.1704 ], [ -73.3029, 9.1721 ], [ -73.2951, 9.1687 ], [ -73.2903, 9.1684 ], [ -73.2812, 9.1621 ], [ -73.2793, 9.1634 ], [ -73.2773, 9.1621 ], [ -73.2753, 9.1659 ], [ -73.274, 9.1645 ], [ -73.2666, 9.165 ], [ -73.2626, 9.1619 ], [ -73.2568, 9.1634 ], [ -73.2552, 9.1611 ], [ -73.2525, 9.1641 ], [ -73.2525, 9.1603 ], [ -73.2504, 9.1588 ], [ -73.2433, 9.1673 ], [ -73.2416, 9.1657 ], [ -73.2393, 9.1662 ], [ -73.2395, 9.168 ], [ -73.2346, 9.1741 ], [ -73.2286, 9.1766 ], [ -73.2247, 9.1759 ], [ -73.2226, 9.1797 ], [ -73.2199, 9.1795 ], [ -73.219, 9.1811 ], [ -73.2146, 9.1808 ], [ -73.2136, 9.1844 ], [ -73.2096, 9.181 ], [ -73.2091, 9.1786 ], [ -73.2065, 9.1795 ], [ -73.2067, 9.182 ], [ -73.2041, 9.1805 ], [ -73.2044, 9.1781 ], [ -73.2025, 9.1809 ], [ -73.2011, 9.1792 ], [ -73.1957, 9.1783 ], [ -73.1931, 9.1752 ], [ -73.1884, 9.1769 ], [ -73.1848, 9.1761 ], [ -73.1809, 9.1779 ], [ -73.1769, 9.1776 ], [ -73.1721, 9.1807 ], [ -73.1719, 9.1837 ], [ -73.1688, 9.1852 ], [ -73.1681, 9.1875 ], [ -73.1664, 9.1871 ], [ -73.1624, 9.1931 ], [ -73.1575, 9.1923 ], [ -73.1585, 9.1953 ], [ -73.1499, 9.2011 ], [ -73.1526, 9.2053 ], [ -73.1529, 9.2111 ], [ -73.1482, 9.2101 ], [ -73.1472, 9.2127 ], [ -73.1445, 9.212 ], [ -73.1441, 9.2142 ], [ -73.1415, 9.2136 ], [ -73.1399, 9.2165 ], [ -73.1373, 9.2156 ], [ -73.1358, 9.2185 ], [ -73.1324, 9.22 ], [ -73.1332, 9.2237 ], [ -73.1296, 9.2259 ], [ -73.1314, 9.2272 ], [ -73.1311, 9.2292 ], [ -73.1228, 9.2278 ], [ -73.117, 9.2322 ], [ -73.1137, 9.2295 ], [ -73.1086, 9.2289 ], [ -73.105, 9.2318 ], [ -73.0992, 9.2272 ], [ -73.0897, 9.2262 ], [ -73.088, 9.2276 ], [ -73.0883, 9.231 ], [ -73.0859, 9.2366 ], [ -73.0819, 9.2411 ], [ -73.0787, 9.2397 ], [ -73.0733, 9.2433 ], [ -73.0735, 9.2452 ], [ -73.0771, 9.2471 ], [ -73.0775, 9.2514 ], [ -73.0762, 9.2576 ], [ -73.0717, 9.2647 ], [ -73.0698, 9.2649 ], [ -73.0641, 9.26 ], [ -73.063, 9.2637 ], [ -73.0573, 9.2637 ], [ -73.0516, 9.259 ], [ -73.0462, 9.2634 ], [ -73.0431, 9.2629 ], [ -73.0442, 9.2699 ], [ -73.0407, 9.2709 ], [ -73.0368, 9.2819 ], [ -73.0321, 9.2846 ], [ -73.0314, 9.2867 ], [ -73.0289, 9.2817 ], [ -73.0265, 9.2809 ], [ -73.0252, 9.2866 ], [ -73.0129, 9.2904 ], [ -73.0113, 9.2922 ], [ -73.0072, 9.2911 ], [ -73.0032, 9.2865 ], [ -73.0056, 9.2761 ], [ -73.024, 9.2618 ], [ -73.0241, 9.2583 ], [ -73.0212, 9.253 ], [ -73.0272, 9.2476 ], [ -73.0243, 9.2426 ], [ -73.0248, 9.2406 ], [ -73.0298, 9.2374 ], [ -73.038, 9.236 ], [ -73.0455, 9.2384 ], [ -73.0529, 9.2294 ], [ -73.058, 9.2272 ], [ -73.0592, 9.2238 ], [ -73.0666, 9.2235 ], [ -73.0714, 9.2215 ], [ -73.071, 9.2099 ], [ -73.0742, 9.2043 ], [ -73.073, 9.2026 ], [ -73.074, 9.1942 ], [ -73.0717, 9.1854 ], [ -73.0764, 9.1797 ], [ -73.0715, 9.1699 ], [ -73.0665, 9.1681 ], [ -73.0602, 9.1625 ], [ -73.0592, 9.1531 ], [ -73.0547, 9.1502 ], [ -73.0599, 9.1447 ], [ -73.0618, 9.1383 ], [ -73.0712, 9.1386 ], [ -73.0749, 9.1342 ], [ -73.0787, 9.1369 ], [ -73.0829, 9.1366 ], [ -73.0906, 9.1294 ], [ -73.0984, 9.1319 ], [ -73.1074, 9.126 ], [ -73.1103, 9.1261 ], [ -73.1156, 9.1304 ], [ -73.1194, 9.1254 ], [ -73.1228, 9.1241 ], [ -73.1209, 9.1171 ], [ -73.1219, 9.1159 ], [ -73.1273, 9.1167 ], [ -73.1279, 9.1187 ], [ -73.1336, 9.1167 ], [ -73.1424, 9.1208 ], [ -73.1406, 9.1147 ], [ -73.1455, 9.1146 ], [ -73.1499, 9.109 ], [ -73.1552, 9.1103 ], [ -73.1541, 9.1068 ], [ -73.1603, 9.1037 ], [ -73.1668, 9.0918 ], [ -73.1785, 9.0873 ], [ -73.1824, 9.0814 ], [ -73.1851, 9.0801 ], [ -73.1849, 9.0777 ], [ -73.1827, 9.0758 ], [ -73.1868, 9.0737 ], [ -73.1903, 9.0742 ], [ -73.1927, 9.0605 ], [ -73.1955, 9.0605 ], [ -73.1958, 9.0645 ], [ -73.2076, 9.06 ], [ -73.212, 9.0606 ], [ -73.2148, 9.0546 ], [ -73.2181, 9.052 ], [ -73.2172, 9.047 ], [ -73.2194, 9.0452 ], [ -73.2202, 9.0408 ], [ -73.2251, 9.0411 ], [ -73.2282, 9.037 ], [ -73.231, 9.0419 ], [ -73.2351, 9.0321 ], [ -73.2404, 9.026 ], [ -73.2377, 9.0233 ], [ -73.2384, 9.0207 ], [ -73.2415, 9.0199 ], [ -73.2419, 9.017 ], [ -73.2454, 9.0159 ], [ -73.2445, 9.0124 ], [ -73.2468, 9.0082 ], [ -73.2511, 9.0073 ], [ -73.2507, 9.0017 ], [ -73.246, 8.9879 ], [ -73.2402, 8.9769 ], [ -73.2429, 8.9741 ], [ -73.2425, 8.9689 ], [ -73.2455, 8.9638 ], [ -73.2438, 8.9581 ], [ -73.2487, 8.9553 ], [ -73.25, 8.9447 ], [ -73.254, 8.9447 ], [ -73.2564, 8.938 ], [ -73.2517, 8.9294 ], [ -73.2536, 8.9264 ], [ -73.2566, 8.9267 ], [ -73.2582, 8.923 ], [ -73.2578, 8.9215 ], [ -73.2512, 8.9222 ], [ -73.2505, 8.9185 ], [ -73.2459, 8.9146 ], [ -73.247, 8.9075 ], [ -73.2408, 8.9028 ], [ -73.2424, 8.8997 ], [ -73.246, 8.8985 ], [ -73.245, 8.8952 ], [ -73.2422, 8.8941 ], [ -73.243, 8.8884 ], [ -73.2395, 8.8849 ], [ -73.2398, 8.8758 ], [ -73.2372, 8.8673 ], [ -73.2382, 8.8545 ], [ -73.2434, 8.8479 ], [ -73.2475, 8.8477 ], [ -73.2499, 8.8435 ], [ -73.2489, 8.8414 ], [ -73.2524, 8.8386 ], [ -73.2562, 8.8386 ], [ -73.2591, 8.8414 ], [ -73.2619, 8.8416 ], [ -73.2664, 8.836 ], [ -73.2706, 8.8358 ], [ -73.279, 8.8321 ], [ -73.291, 8.8329 ], [ -73.2979, 8.8268 ], [ -73.2954, 8.815 ], [ -73.3002, 8.8074 ], [ -73.2997, 8.8025 ], [ -73.295, 8.7966 ], [ -73.2974, 8.7898 ], [ -73.2954, 8.78 ], [ -73.2987, 8.7757 ], [ -73.2955, 8.7645 ], [ -73.3065, 8.7539 ], [ -73.3076, 8.75 ], [ -73.3063, 8.7453 ], [ -73.3093, 8.7422 ], [ -73.3055, 8.735 ], [ -73.3083, 8.7335 ], [ -73.309, 8.7298 ], [ -73.3127, 8.7253 ], [ -73.3103, 8.7183 ], [ -73.3132, 8.7117 ], [ -73.3069, 8.7038 ], [ -73.3079, 8.6972 ], [ -73.3061, 8.6881 ], [ -73.3081, 8.684 ], [ -73.3069, 8.6811 ], [ -73.3165, 8.6762 ], [ -73.3313, 8.6594 ], [ -73.3399, 8.6557 ], [ -73.3458, 8.6587 ], [ -73.349, 8.6556 ], [ -73.3562, 8.6541 ], [ -73.3601, 8.6551 ], [ -73.3625, 8.6506 ], [ -73.3713, 8.6469 ], [ -73.3737, 8.6477 ], [ -73.3736, 8.6504 ], [ -73.3763, 8.6506 ], [ -73.3819, 8.6423 ], [ -73.3828, 8.6262 ], [ -73.3786, 8.6234 ], [ -73.3774, 8.6192 ], [ -73.3744, 8.6174 ], [ -73.372, 8.6136 ], [ -73.3694, 8.6067 ], [ -73.3702, 8.5985 ], [ -73.3684, 8.5979 ], [ -73.3633, 8.5897 ], [ -73.368, 8.5892 ], [ -73.3686, 8.5831 ], [ -73.3715, 8.5816 ], [ -73.3718, 8.5782 ], [ -73.3757, 8.5772 ], [ -73.3816, 8.5676 ], [ -73.3868, 8.5668 ], [ -73.3909, 8.5644 ], [ -73.394, 8.5607 ], [ -73.3948, 8.5567 ], [ -73.4061, 8.5455 ], [ -73.4061, 8.5359 ], [ -73.4083, 8.5272 ], [ -73.4047, 8.5228 ], [ -73.405, 8.5125 ], [ -73.4012, 8.5084 ], [ -73.4062, 8.5051 ], [ -73.4092, 8.4939 ], [ -73.4119, 8.4913 ], [ -73.4124, 8.4867 ], [ -73.4089, 8.4744 ], [ -73.4155, 8.4685 ], [ -73.4137, 8.4586 ], [ -73.4152, 8.453 ], [ -73.4146, 8.4423 ], [ -73.4108, 8.4334 ], [ -73.4112, 8.4284 ], [ -73.4167, 8.4224 ], [ -73.4198, 8.4241 ], [ -73.4262, 8.4243 ], [ -73.4405, 8.4215 ], [ -73.4476, 8.424 ], [ -73.4542, 8.4176 ], [ -73.4552, 8.4143 ], [ -73.46, 8.4123 ], [ -73.4625, 8.4049 ], [ -73.469, 8.4025 ], [ -73.4721, 8.4061 ], [ -73.4745, 8.4065 ], [ -73.4772, 8.4111 ], [ -73.4746, 8.4209 ], [ -73.4772, 8.4269 ], [ -73.4923, 8.4219 ] ] ] ] } },
{ "type": "Feature", "properties": { "gid": "COL.23.13_2", "name": "ElTarra", "municipio": "ElTarra", "departamento": "NortedeSantander", "year": 2023, "predicted_ha": 6687.2393130391838, "official_ha": 6864.19, "ratio": 0.97422118458830309 }, "geometry": { "type": "MultiPolygon", "coordinates": [ [ [ [ -73.1576, 8.5725 ], [ -73.161, 8.575 ], [ -73.1579, 8.5782 ], [ -73.1579, 8.5844 ], [ -73.1612, 8.5855 ], [ -73.1616, 8.5875 ], [ -73.1584, 8.5913 ], [ -73.1587, 8.5961 ], [ -73.157, 8.6001 ], [ -73.1604, 8.5999 ], [ -73.1621, 8.6038 ], [ -73.1642, 8.6033 ], [ -73.1653, 8.6071 ], [ -73.1634, 8.6078 ], [ -73.1626, 8.6124 ], [ -73.1664, 8.6171 ], [ -73.1637, 8.6224 ], [ -73.1558, 8.6313 ], [ -73.1532, 8.6528 ], [ -73.1489, 8.6584 ], [ -73.1501, 8.6645 ], [ -73.1476, 8.6743 ], [ -73.1434, 8.6765 ], [ -73.1356, 8.6868 ], [ -73.1306, 8.69 ], [ -73.1279, 8.6949 ], [ -73.12, 8.6961 ], [ -73.1197, 8.6998 ], [ -73.1106, 8.7083 ], [ -73.1082, 8.713 ], [ -73.1037, 8.7138 ], [ -73.1021, 8.7169 ], [ -73.0975, 8.7197 ], [ -73.0997, 8.7255 ], [ -73.0984, 8.7267 ], [ -73.0992, 8.7385 ], [ -73.0972, 8.7406 ], [ -73.0976, 8.7454 ], [ -73.0928, 8.7565 ], [ -73.0812, 8.7597 ], [ -73.076, 8.7548 ], [ -73.07, 8.7529 ], [ -73.0686, 8.7554 ], [ -73.0698, 8.762 ], [ -73.0604, 8.7665 ], [ -73.0565, 8.7649 ], [ -73.0515, 8.7733 ], [ -73.0512, 8.7782 ], [ -73.0542, 8.788 ], [ -73.052, 8.8026 ], [ -73.0474, 8.8122 ], [ -73.0537, 8.8259 ], [ -73.0551, 8.8362 ], [ -73.0612, 8.8403 ], [ -73.0652, 8.8454 ], [ -73.0667, 8.854 ], [ -73.0634, 8.8643 ], [ -73.0591, 8.8679 ], [ -73.0553, 8.8645 ], [ -73.0443, 8.8661 ], [ -73.0268, 8.8756 ], [ -73.0223, 8.8744 ], [ -73.0214, 8.8774 ], [ -73.0176, 8.8765 ], [ -73.0106, 8.8793 ], [ -73.0029, 8.8884 ], [ -73.0015, 8.8848 ], [ -72.9992, 8.8844 ], [ -72.9935, 8.879 ], [ -72.9902, 8.8828 ], [ -72.9869, 8.8806 ], [ -72.985, 8.8821 ], [ -72.9716, 8.8835 ], [ -72.9703, 8.8891 ], [ -72.9692, 8.885 ], [ -72.9711, 8.8776 ], [ -72.9697, 8.8721 ], [ -72.9746, 8.864 ], [ -72.9754, 8.8585 ], [ -72.9716, 8.8581 ], [ -72.9671, 8.8636 ], [ -72.9664, 8.8557 ], [ -72.9635, 8.8531 ], [ -72.9534, 8.852 ], [ -72.9511, 8.8498 ], [ -72.9496, 8.8427 ], [ -72.9471, 8.8387 ], [ -72.9531, 8.8277 ], [ -72.9639, 8.815 ], [ -72.9656, 8.8101 ], [ -72.9531, 8.803 ], [ -72.9514, 8.7961 ], [ -72.9449, 8.7935 ], [ -72.9427, 8.7892 ], [ -72.9437, 8.7837 ], [ -72.9523, 8.7854 ], [ -72.9549, 8.7838 ], [ -72.9599, 8.764 ], [ -72.9547, 8.755 ], [ -72.946, 8.7565 ], [ -72.9431, 8.7589 ], [ -72.9412, 8.7583 ], [ -72.9404, 8.7362 ], [ -72.9263, 8.7287 ], [ -72.9166, 8.7119 ], [ -72.9197, 8.7066 ], [ -72.915, 8.7037 ], [ -72.9207, 8.7027 ], [ -72.9202, 8.6957 ], [ -72.9217, 8.6927 ], [ -72.9172, 8.6908 ], [ -72.9157, 8.6916 ], [ -72.9165, 8.6933 ], [ -72.9144, 8.6934 ], [ -72.9153, 8.6895 ], [ -72.9139, 8.688 ], [ -72.9184, 8.6859 ], [ -72.9234, 8.6913 ], [ -72.925, 8.6868 ], [ -72.9229, 8.6801 ], [ -72.9183, 8.6782 ], [ -72.9202, 8.6749 ], [ -72.9187, 8.6689 ], [ -72.917, 8.6702 ], [ -72.9159, 8.6674 ], [ -72.911, 8.6665 ], [ -72.9141, 8.6617 ], [ -72.9182, 8.6614 ], [ -72.9178, 8.6569 ], [ -72.9145, 8.6575 ], [ -72.9176, 8.654 ], [ -72.9175, 8.648 ], [ -72.9145, 8.6491 ], [ -72.9133, 8.6454 ], [ -72.9114, 8.6444 ], [ -72.9167, 8.6401 ], [ -72.9137, 8.6406 ], [ -72.9088, 8.6377 ], [ -72.9149, 8.6352 ], [ -72.9129, 8.634 ], [ -72.9141, 8.6319 ], [ -72.9123, 8.6255 ], [ -72.91, 8.6258 ], [ -72.9118, 8.6226 ], [ -72.9076, 8.6156 ], [ -72.9086, 8.6103 ], [ -72.9056, 8.6103 ], [ -72.9098, 8.6034 ], [ -72.9055, 8.6015 ], [ -72.9119, 8.5883 ], [ -72.9161, 8.5833 ], [ -72.929, 8.5778 ], [ -72.9321, 8.5778 ], [ -72.9379, 8.574 ], [ -72.9412, 8.5771 ], [ -72.947, 8.5789 ], [ -72.9494, 8.5829 ], [ -72.9524, 8.5829 ], [ -72.9535, 8.5863 ], [ -72.9577, 8.5873 ], [ -72.9663, 8.5862 ], [ -72.9721, 8.5822 ], [ -72.9784, 8.5822 ], [ -72.9899, 8.579 ], [ -73.0162, 8.5584 ], [ -73.019, 8.5463 ], [ -73.0325, 8.5493 ], [ -73.0507, 8.5584 ], [ -73.054, 8.5573 ], [ -73.0557, 8.5593 ], [ -73.0568, 8.5566 ], [ -73.0593, 8.5561 ], [ -73.0589, 8.5609 ], [ -73.0617, 8.5654 ], [ -73.0604, 8.5703 ], [ -73.0671, 8.575 ], [ -73.0702, 8.5737 ], [ -73.0714, 8.5758 ], [ -73.0743, 8.5758 ], [ -73.0758, 8.5784 ], [ -73.0789, 8.578 ], [ -73.0795, 8.5802 ], [ -73.0776, 8.5851 ], [ -73.0812, 8.5881 ], [ -73.0854, 8.5864 ], [ -73.0917, 8.5779 ], [ -73.0912, 8.5693 ], [ -73.0938, 8.5616 ], [ -73.096, 8.5607 ], [ -73.1042, 8.5633 ], [ -73.1045, 8.5607 ], [ -73.1081, 8.5598 ], [ -73.1065, 8.5581 ], [ -73.1072, 8.557 ], [ -73.1106, 8.5586 ], [ -73.1147, 8.5565 ], [ -73.117, 8.5574 ], [ -73.1199, 8.5526 ], [ -73.1238, 8.5509 ], [ -73.1312, 8.5541 ], [ -73.1388, 8.555 ], [ -73.1412, 8.5536 ], [ -73.1439, 8.555 ], [ -73.1464, 8.5539 ], [ -73.1515, 8.5554 ], [ -73.1561, 8.5611 ], [ -73.1586, 8.5608 ], [ -73.1571, 8.5624 ], [ -73.1586, 8.5646 ], [ -73.1576, 8.5725 ] ] ] ] } },
{ "type": "Feature", "properties": { "gid": "COL.23.16_2", "name": "Hacarí", "municipio": "Hacarí", "departamento": "NortedeSantander", "year": 2023, "predicted_ha": 1134.4370822954179, "official_ha": 824.39, "ratio": 1.3760927258887394 }, "geometry": { "type": "MultiPolygon", "coordinates": [ [ [ [ -72.99, 8.2846 ], [ -72.9923, 8.2839 ], [ -72.9954, 8.286 ], [ -73.0025, 8.284 ], [ -73.0077, 8.2858 ], [ -73.0121, 8.2844 ], [ -73.0189, 8.2862 ], [ -73.0209, 8.2846 ], [ -73.0207, 8.2817 ], [ -73.0241, 8.2815 ], [ -73.0251, 8.2786 ], [ -73.0301, 8.2765 ], [ -73.0331, 8.2793 ], [ -73.0355, 8.2778 ], [ -73.0393, 8.2804 ], [ -73.0442, 8.2783 ], [ -73.049, 8.2811 ], [ -73.051, 8.2847 ], [ -73.0536, 8.2845 ], [ -73.0552, 8.2873 ], [ -73.0611, 8.2835 ], [ -73.0735, 8.2815 ], [ -73.0807, 8.2783 ], [ -73.0824, 8.2756 ], [ -73.0836, 8.2768 ], [ -73.0889, 8.2724 ], [ -73.0882, 8.2669 ], [ -73.0897, 8.2644 ], [ -73.0893, 8.2596 ], [ -73.0911, 8.2587 ], [ -73.0913, 8.2526 ], [ -73.0965, 8.2483 ], [ -73.0987, 8.244 ], [ -73.1123, 8.243 ], [ -73.1197, 8.2462 ], [ -73.1253, 8.2466 ], [ -73.137, 8.255 ], [ -73.1398, 8.2596 ], [ -73.1429, 8.258 ], [ -73.1458, 8.2588 ], [ -73.1496, 8.2638 ], [ -73.155, 8.2649 ], [ -73.1561, 8.2758 ], [ -73.1529, 8.2838 ], [ -73.1553, 8.2858 ], [ -73.1551, 8.2962 ], [ -73.1605, 8.3 ], [ -73.1624, 8.2947 ], [ -73.1721, 8.296 ], [ -73.1756, 8.2984 ], [ -73.1789, 8.3055 ], [ -73.1837, 8.3068 ], [ -73.1825, 8.3118 ], [ -73.181, 8.311 ], [ -73.1811, 8.3127 ], [ -73.1774, 8.313 ], [ -73.1761, 8.3155 ], [ -73.1705, 8.3139 ], [ -73.1708, 8.3153 ], [ -73.1673, 8.3172 ], [ -73.1831, 8.3296 ], [ -73.1793, 8.3338 ], [ -73.181, 8.341 ], [ -73.1797, 8.3503 ], [ -73.1858, 8.3611 ], [ -73.1859, 8.3697 ], [ -73.1791, 8.3747 ], [ -73.1783, 8.3781 ], [ -73.1733, 8.3846 ], [ -73.1755, 8.3911 ], [ -73.1759, 8.399 ], [ -73.1776, 8.4012 ], [ -73.1776, 8.4102 ], [ -73.1838, 8.4133 ], [ -73.1818, 8.4129 ], [ -73.1805, 8.4146 ], [ -73.1731, 8.4165 ], [ -73.17, 8.4262 ], [ -73.1619, 8.4355 ], [ -73.1558, 8.4338 ], [ -73.1521, 8.4358 ], [ -73.1441, 8.4334 ], [ -73.1369, 8.4358 ], [ -73.132, 8.4347 ], [ -73.1324, 8.4317 ], [ -73.1305, 8.4323 ], [ -73.1277, 8.4276 ], [ -73.1236, 8.4287 ], [ -73.1168, 8.4228 ], [ -73.1147, 8.4242 ], [ -73.1136, 8.4226 ], [ -73.111, 8.4244 ], [ -73.1069, 8.4212 ], [ -73.0966, 8.4222 ], [ -73.0947, 8.4257 ], [ -73.095, 8.429 ], [ -73.0901, 8.4352 ], [ -73.0891, 8.4459 ], [ -73.0865, 8.449 ], [ -73.0849, 8.456 ], [ -73.0789, 8.4578 ], [ -73.0762, 8.461 ], [ -73.0747, 8.4663 ], [ -73.0619, 8.4747 ], [ -73.0601, 8.4809 ], [ -73.0509, 8.4867 ], [ -73.0493, 8.4929 ], [ -73.0422, 8.4892 ], [ -73.0393, 8.4848 ], [ -73.031, 8.4834 ], [ -73.0286, 8.48 ], [ -73.0183, 8.4736 ], [ -73.0135, 8.4672 ], [ -73.0132, 8.4576 ], [ -73.0109, 8.4519 ], [ -73.0034, 8.4466 ], [ -73.0029, 8.4445 ], [ -72.9885, 8.4378 ], [ -72.9849, 8.4253 ], [ -72.9777, 8.4153 ], [ -72.9735, 8.4169 ], [ -72.973, 8.4157 ], [ -72.9735, 8.4129 ], [ -72.9769, 8.4098 ], [ -72.9829, 8.4121 ], [ -72.987, 8.4118 ], [ -72.9903, 8.4051 ], [ -72.9882, 8.3985 ], [ -72.9921, 8.3949 ], [ -72.9943, 8.3898 ], [ -72.9911, 8.3751 ], [ -72.9803, 8.3641 ], [ -72.9825, 8.3609 ], [ -72.9836, 8.3521 ], [ -72.9792, 8.3419 ], [ -72.9735, 8.3351 ], [ -72.9714, 8.3272 ], [ -72.9751, 8.3216 ], [ -72.9803, 8.3214 ], [ -72.9806, 8.3163 ], [ -72.9827, 8.3129 ], [ -72.9751, 8.301 ], [ -72.9753, 8.2984 ], [ -72.9778, 8.2965 ], [ -72.9823, 8.2972 ], [ -72.9871, 8.2922 ], [ -72.99, 8.2846 ] ] ] ] } },
{ "type": "Feature", "properties": { "gid": "COL.23.19_2", "name": "LaPlayadeBelén", "municipio": "LaPlayadeBelén", "departamento": "NortedeSantander", "year": 2023, "predicted_ha": 47.162685256749391, "official_ha": null, "ratio": null }, "geometry": { "type": "MultiPolygon", "coordinates": [ [ [ [ -73.0552, 8.2873 ], [ -73.055, 8.2844 ], [ -73.0581, 8.2831 ], [ -73.0594, 8.2735 ], [ -73.0553, 8.2687 ], [ -73.0561, 8.2651 ], [ -73.0544, 8.2641 ], [ -73.0542, 8.2591 ], [ -73.0517, 8.2569 ], [ -73.0513, 8.2523 ], [ -73.0493, 8.2496 ], [ -73.0501, 8.2485 ], [ -73.0483, 8.2435 ], [ -73.0531, 8.241 ], [ -73.0516, 8.2385 ], [ -73.0534, 8.2372 ], [ -73.0513, 8.2367 ], [ -73.0517, 8.2346 ], [ -73.0482, 8.2301 ], [ -73.0534, 8.2289 ], [ -73.0557, 8.223 ], [ -73.0606, 8.2221 ], [ -73.0639, 8.2176 ], [ -73.0733, 8.2136 ], [ -73.0728, 8.2115 ], [ -73.0751, 8.2113 ], [ -73.0751, 8.2091 ], [ -73.0776, 8.2078 ], [ -73.0801, 8.2033 ], [ -73.0794, 8.2018 ], [ -73.077, 8.2037 ], [ -73.0777, 8.199 ], [ -73.0821, 8.1955 ], [ -73.0884, 8.1982 ], [ -73.0887, 8.204 ], [ -73.0914, 8.2088 ], [ -73.1001, 8.2153 ], [ -73.1136, 8.2238 ], [ -73.1299, 8.2272 ], [ -73.1367, 8.2223 ], [ -73.1395, 8.2237 ], [ -73.151, 8.2244 ], [ -73.1529, 8.2143 ], [ -73.1583, 8.2167 ], [ -73.1615, 8.2101 ], [ -73.1648, 8.2119 ], [ -73.1674, 8.2094 ], [ -73.1664, 8.2133 ], [ -73.1727, 8.215 ], [ -73.175, 8.2129 ], [ -73.1781, 8.2023 ], [ -73.1816, 8.1974 ], [ -73.1879, 8.1989 ], [ -73.195, 8.1901 ], [ -73.197, 8.1907 ], [ -73.1967, 8.1931 ], [ -73.1951, 8.1937 ], [ -73.1969, 8.1963 ], [ -73.2045, 8.1954 ], [ -73.2033, 8.1838 ], [ -73.2094, 8.1831 ], [ -73.2121, 8.1807 ], [ -73.2157, 8.1823 ], [ -73.221, 8.1806 ], [ -73.2258, 8.1756 ], [ -73.2329, 8.1749 ], [ -73.2358, 8.1716 ], [ -73.2409, 8.1709 ], [ -73.2408, 8.1695 ], [ -73.2436, 8.1706 ], [ -73.2519, 8.1689 ], [ -73.2582, 8.1751 ], [ -73.2602, 8.1795 ], [ -73.2602, 8.1809 ], [ -73.2589, 8.1807 ], [ -73.2596, 8.182 ], [ -73.2699, 8.1858 ], [ -73.2745, 8.192 ], [ -73.2723, 8.1973 ], [ -73.2735, 8.199 ], [ -73.2717, 8.2045 ], [ -73.273, 8.2076 ], [ -73.2649, 8.2091 ], [ -73.2651, 8.2127 ], [ -73.2587, 8.2245 ], [ -73.2619, 8.2321 ], [ -73.261, 8.2388 ], [ -73.267, 8.2427 ], [ -73.2722, 8.2437 ], [ -73.2741, 8.2507 ], [ -73.2712, 8.2547 ], [ -73.2589, 8.26 ], [ -73.2583, 8.2647 ], [ -73.2553, 8.2684 ], [ -73.255, 8.2717 ], [ -73.2566, 8.2736 ], [ -73.2522, 8.281 ], [ -73.2526, 8.2835 ], [ -73.256, 8.2863 ], [ -73.2565, 8.2918 ], [ -73.2548, 8.2942 ], [ -73.2522, 8.2946 ], [ -73.2499, 8.2984 ], [ -73.2525, 8.304 ], [ -73.2499, 8.3105 ], [ -73.2527, 8.3137 ], [ -73.2589, 8.316 ], [ -73.2669, 8.3137 ], [ -73.2659, 8.312 ], [ -73.2681, 8.3101 ], [ -73.2704, 8.3116 ], [ -73.2701, 8.3144 ], [ -73.2758, 8.3114 ], [ -73.2765, 8.3211 ], [ -73.2722, 8.3238 ], [ -73.2689, 8.3221 ], [ -73.266, 8.3232 ], [ -73.2656, 8.326 ], [ -73.2626, 8.3275 ], [ -73.261, 8.3321 ], [ -73.2562, 8.3317 ], [ -73.2545, 8.3351 ], [ -73.2506, 8.3366 ], [ -73.2459, 8.3427 ], [ -73.2298, 8.3398 ], [ -73.2274, 8.337 ], [ -73.215, 8.3339 ], [ -73.207, 8.3279 ], [ -73.2053, 8.3194 ], [ -73.2022, 8.3183 ], [ -73.1993, 8.323 ], [ -73.1984, 8.3327 ], [ -73.2019, 8.34 ], [ -73.2014, 8.3441 ], [ -73.2042, 8.3468 ], [ -73.202, 8.355 ], [ -73.1979, 8.3599 ], [ -73.1981, 8.3664 ], [ -73.1966, 8.3688 ], [ -73.1859, 8.3699 ], [ -73.1858, 8.3611 ], [ -73.1797, 8.3503 ], [ -73.181, 8.341 ], [ -73.1793, 8.3338 ], [ -73.183, 8.3294 ], [ -73.1673, 8.3172 ], [ -73.1708, 8.3153 ], [ -73.1705, 8.3139 ], [ -73.1761, 8.3155 ], [ -73.1774, 8.313 ], [ -73.1811, 8.3127 ], [ -73.181, 8.311 ], [ -73.1825, 8.3118 ], [ -73.1834, 8.3061 ], [ -73.1789, 8.3055 ], [ -73.1756, 8.2984 ], [ -73.1721, 8.296 ], [ -73.1624, 8.2947 ], [ -73.1605, 8.3 ], [ -73.1551, 8.2962 ], [ -73.1553, 8.2858 ], [ -73.1529, 8.2838 ], [ -73.1561, 8.2758 ], [ -73.155, 8.2649 ], [ -73.1496, 8.2638 ], [ -73.1452, 8.2584 ], [ -73.1398, 8.2596 ], [ -73.137, 8.255 ], [ -73.1253, 8.2466 ], [ -73.1197, 8.2462 ], [ -73.1117, 8.2429 ], [ -73.098, 8.2442 ], [ -73.0965, 8.2483 ], [ -73.0913, 8.2526 ], [ -73.0911, 8.2587 ], [ -73.0893, 8.2596 ], [ -73.0897, 8.2644 ], [ -73.0882, 8.2669 ], [ -73.0889, 8.2724 ], [ -73.0836, 8.2768 ], [ -73.0826, 8.2756 ], [ -73.081, 8.2764 ], [ -73.0807, 8.2783 ], [ -73.0735, 8.2815 ], [ -73.0611, 8.2835 ], [ -73.0552, 8.2873 ] ] ] ] } },
{ "type": "Feature", "properties": { "gid": "COL.23.30_2", "name": "SanCalixto", "municipio": "SanCalixto", "departamento": "NortedeSantander", "year": 2023, "predicted_ha": 1980.3296036095917, "official_ha": 1173.85, "ratio": 1.6870380403029279 }, "geometry": { "type": "MultiPolygon", "coordinates": [ [ [ [ -73.1576, 8.5725 ], [ -73.1586, 8.5646 ], [ -73.1571, 8.5624 ], [ -73.1586, 8.5608 ], [ -73.1561, 8.5611 ], [ -73.1515, 8.5554 ], [ -73.1464, 8.5539 ], [ -73.1439, 8.555 ], [ -73.1412, 8.5536 ], [ -73.1388, 8.555 ], [ -73.1312, 8.5541 ], [ -73.1238, 8.5509 ], [ -73.1199, 8.5526 ], [ -73.117, 8.5574 ], [ -73.1147, 8.5565 ], [ -73.1106, 8.5586 ], [ -73.1072, 8.557 ], [ -73.1065, 8.5581 ], [ -73.1081, 8.5598 ], [ -73.1045, 8.5607 ], [ -73.1042, 8.5633 ], [ -73.096, 8.5607 ], [ -73.0938, 8.5616 ], [ -73.0912, 8.5693 ], [ -73.0917, 8.5779 ], [ -73.0854, 8.5864 ], [ -73.0812, 8.5881 ], [ -73.0776, 8.5851 ], [ -73.0795, 8.5802 ], [ -73.0789, 8.578 ], [ -73.0758, 8.5784 ], [ -73.0743, 8.5758 ], [ -73.0714, 8.5758 ], [ -73.0702, 8.5737 ], [ -73.0671, 8.575 ], [ -73.0604, 8.5703 ], [ -73.0617, 8.5654 ], [ -73.0589, 8.5609 ], [ -73.0593, 8.5561 ], [ -73.0568, 8.5566 ], [ -73.0557, 8.5593 ], [ -73.054, 8.5573 ], [ -73.0495, 8.5581 ], [ -73.0325, 8.5493 ], [ -73.022, 8.5465 ], [ -73.019, 8.5463 ], [ -73.0178, 8.5477 ], [ -73.0161, 8.5449 ], [ -73.0105, 8.5424 ], [ -73.0014, 8.5225 ], [ -72.9923, 8.5108 ], [ -72.9942, 8.4955 ], [ -72.984, 8.4883 ], [ -72.9784, 8.4903 ], [ -72.976, 8.4895 ], [ -72.9655, 8.4711 ], [ -72.9664, 8.4668 ], [ -72.9644, 8.4537 ], [ -72.9685, 8.4449 ], [ -72.9667, 8.441 ], [ -72.9684, 8.4355 ], [ -72.9656, 8.4242 ], [ -72.9695, 8.4186 ], [ -72.976, 8.4149 ], [ -72.9777, 8.4153 ], [ -72.9849, 8.4253 ], [ -72.9885, 8.4378 ], [ -73.0029, 8.4445 ], [ -73.0034, 8.4466 ], [ -73.0113, 8.4523 ], [ -73.0132, 8.4576 ], [ -73.0135, 8.4672 ], [ -73.0183, 8.4736 ], [ -73.0286, 8.48 ], [ -73.031, 8.4834 ], [ -73.0393, 8.4848 ], [ -73.0422, 8.4892 ], [ -73.0493, 8.4929 ], [ -73.0509, 8.4867 ], [ -73.0601, 8.4809 ], [ -73.0619, 8.4747 ], [ -73.0747, 8.4663 ], [ -73.0762, 8.461 ], [ -73.0789, 8.4578 ], [ -73.0849, 8.456 ], [ -73.0865, 8.449 ], [ -73.0891, 8.4459 ], [ -73.0901, 8.4352 ], [ -73.095, 8.429 ], [ -73.0947, 8.4257 ], [ -73.0966, 8.4222 ], [ -73.1069, 8.4212 ], [ -73.111, 8.4244 ], [ -73.1136, 8.4226 ], [ -73.1147, 8.4242 ], [ -73.1168, 8.4228 ], [ -73.1236, 8.4287 ], [ -73.1277, 8.4276 ], [ -73.1305, 8.4323 ], [ -73.1324, 8.4317 ], [ -73.132, 8.4347 ], [ -73.1369, 8.4358 ], [ -73.1441, 8.4334 ], [ -73.1521, 8.4358 ], [ -73.1558, 8.4338 ], [ -73.1619, 8.4355 ], [ -73.17, 8.4262 ], [ -73.1731, 8.4165 ], [ -73.1805, 8.4146 ], [ -73.1818, 8.4129 ], [ -73.1838, 8.4133 ], [ -73.1776, 8.4102 ], [ -73.1776, 8.4012 ], [ -73.1759, 8.399 ], [ -73.1734, 8.3831 ], [ -73.1783, 8.3781 ], [ -73.1791, 8.3747 ], [ -73.1849, 8.3696 ], [ -73.1946, 8.3694 ], [ -73.1978, 8.3675 ], [ -73.1979, 8.3599 ], [ -73.202, 8.355 ], [ -73.2042, 8.3468 ], [ -73.2014, 8.3441 ], [ -73.2019, 8.34 ], [ -73.1984, 8.3327 ], [ -73.1993, 8.323 ], [ -73.2019, 8.3185 ], [ -73.2053, 8.3194 ], [ -73.207, 8.3279 ], [ -73.215, 8.3339 ], [ -73.2274, 8.337 ], [ -73.2298, 8.3398 ], [ -73.2459, 8.3427 ], [ -73.2506, 8.3366 ], [ -73.2545, 8.3351 ], [ -73.2562, 8.3317 ], [ -73.261, 8.3321 ], [ -73.2626, 8.3275 ], [ -73.2656, 8.326 ], [ -73.266, 8.3232 ], [ -73.2698, 8.3251 ], [ -73.2693, 8.3296 ], [ -73.2724, 8.3287 ], [ -73.2761, 8.3341 ], [ -73.2816, 8.3296 ], [ -73.2843, 8.3283 ], [ -73.2837, 8.3305 ], [ -73.2887, 8.3264 ], [ -73.2901, 8.3282 ], [ -73.2917, 8.3258 ], [ -73.296, 8.333 ], [ -73.2945, 8.3365 ], [ -73.299, 8.3427 ], [ -73.3004, 8.3475 ], [ -73.2988, 8.3498 ], [ -73.3022, 8.3556 ], [ -73.2998, 8.3563 ], [ -73.2986, 8.3618 ], [ -73.2953, 8.3629 ], [ -73.2932, 8.3659 ], [ -73.2909, 8.3759 ], [ -73.2876, 8.3799 ], [ -73.288, 8.3839 ], [ -73.2833, 8.3879 ], [ -73.2754, 8.3871 ], [ -73.2744, 8.3884 ], [ -73.2753, 8.3937 ], [ -73.2737, 8.3973 ], [ -73.2756, 8.4014 ], [ -73.2789, 8.4037 ], [ -73.2761, 8.4056 ], [ -73.2772, 8.408 ], [ -73.276, 8.4099 ], [ -73.2737, 8.4079 ], [ -73.2721, 8.4086 ], [ -73.2714, 8.412 ], [ -73.2734, 8.4129 ], [ -73.2745, 8.4166 ], [ -73.2714, 8.4185 ], [ -73.2711, 8.4222 ], [ -73.2671, 8.4272 ], [ -73.263, 8.4273 ], [ -73.2617, 8.4304 ], [ -73.2632, 8.4314 ], [ -73.261, 8.4335 ], [ -73.2617, 8.4394 ], [ -73.2673, 8.4435 ], [ -73.2717, 8.4524 ], [ -73.2687, 8.457 ], [ -73.269, 8.4598 ], [ -73.2624, 8.4589 ], [ -73.2596, 8.4609 ], [ -73.2582, 8.4561 ], [ -73.2555, 8.457 ], [ -73.2527, 8.4534 ], [ -73.2534, 8.451 ], [ -73.2464, 8.4491 ], [ -73.2474, 8.4528 ], [ -73.2463, 8.4615 ], [ -73.2515, 8.4699 ], [ -73.2349, 8.4707 ], [ -73.2333, 8.4863 ], [ -73.2305, 8.4894 ], [ -73.2212, 8.4937 ], [ -73.2175, 8.4992 ], [ -73.2185, 8.5085 ], [ -73.2243, 8.5163 ], [ -73.2204, 8.5302 ], [ -73.2056, 8.5399 ], [ -73.2015, 8.545 ], [ -73.2018, 8.5513 ], [ -73.1977, 8.5542 ], [ -73.1858, 8.5562 ], [ -73.1758, 8.5533 ], [ -73.1702, 8.5544 ], [ -73.1655, 8.5644 ], [ -73.1576, 8.5725 ] ] ] ] } },
{ "type": "Feature", "properties": { "gid": "COL.23.32_2", "name": "SanJosédeCúcuta", "municipio": "SanJosédeCúcuta", "departamento": "NortedeSantander", "year": 2023, "predicted_ha": 261.01690986737611, "official_ha": null, "ratio": null }, "geometry": { "type": "MultiPolygon", "coordinates": [ [ [ [ -72.5757, 7.7239 ], [ -72.5828, 7.7352 ], [ -72.5827, 7.7474 ], [ -72.5854, 7.7514 ], [ -72.5817, 7.7579 ], [ -72.5815, 7.761 ], [ -72.5776, 7.764 ], [ -72.5795, 7.7646 ], [ -72.5664, 7.781 ], [ -72.5634, 7.7957 ], [ -72.5725, 7.801 ], [ -72.5782, 7.8094 ], [ -72.584, 7.8148 ], [ -72.5837, 7.8174 ], [ -72.5813, 7.8186 ], [ -72.5831, 7.82 ], [ -72.5852, 7.8353 ], [ -72.583, 7.8366 ], [ -72.5831, 7.8404 ], [ -72.5779, 7.8426 ], [ -72.5782, 7.8467 ], [ -72.573, 7.8475 ], [ -72.5723, 7.8455 ], [ -72.5644, 7.8458 ], [ -72.5632, 7.8477 ], [ -72.5654, 7.8475 ], [ -72.5596, 7.8527 ], [ -72.5612, 7.8564 ], [ -72.5579, 7.8593 ], [ -72.5591, 7.8615 ], [ -72.555, 7.8627 ], [ -72.55, 7.8704 ], [ -72.5463, 7.8685 ], [ -72.5465, 7.8726 ], [ -72.5443, 7.8747 ], [ -72.5453, 7.8764 ], [ -72.5418, 7.8794 ], [ -72.5425, 7.8828 ], [ -72.5454, 7.8831 ], [ -72.5454, 7.8863 ], [ -72.5432, 7.8853 ], [ -72.5423, 7.8876 ], [ -72.5452, 7.8897 ], [ -72.5483, 7.8893 ], [ -72.5498, 7.8874 ], [ -72.5525, 7.8901 ], [ -72.5561, 7.8899 ], [ -72.5573, 7.8916 ], [ -72.5586, 7.8904 ], [ -72.56, 7.8931 ], [ -72.5612, 7.89 ], [ -72.5664, 7.8876 ], [ -72.5678, 7.8891 ], [ -72.5697, 7.8884 ], [ -72.5693, 7.8917 ], [ -72.572, 7.8937 ], [ -72.572, 7.8914 ], [ -72.5749, 7.89 ], [ -72.5767, 7.8853 ], [ -72.579, 7.8847 ], [ -72.5822, 7.8867 ], [ -72.586, 7.8861 ], [ -72.5865, 7.8891 ], [ -72.5907, 7.8915 ], [ -72.5892, 7.8967 ], [ -72.5867, 7.8983 ], [ -72.5881, 7.9007 ], [ -72.5856, 7.9005 ], [ -72.5881, 7.9036 ], [ -72.5838, 7.9063 ], [ -72.5891, 7.9112 ], [ -72.5869, 7.9136 ], [ -72.5871, 7.9219 ], [ -72.5837, 7.9268 ], [ -72.5864, 7.9345 ], [ -72.5858, 7.9394 ], [ -72.5927, 7.9456 ], [ -72.5888, 7.9492 ], [ -72.5903, 7.9499 ], [ -72.5924, 7.9576 ], [ -72.5952, 7.959 ], [ -72.5937, 7.963 ], [ -72.5971, 7.967 ], [ -72.5938, 7.9754 ], [ -72.5951, 7.9794 ], [ -72.5933, 7.982 ], [ -72.5931, 7.9875 ], [ -72.5967, 8.0 ], [ -72.5936, 8.0031 ], [ -72.5948, 8.0063 ], [ -72.594, 8.0093 ], [ -72.5898, 8.0135 ], [ -72.5865, 8.0221 ], [ -72.5888, 8.0296 ], [ -72.5913, 8.0307 ], [ -72.5907, 8.036 ], [ -72.5925, 8.0366 ], [ -72.5901, 8.0437 ], [ -72.5911, 8.0516 ], [ -72.5861, 8.0545 ], [ -72.585, 8.0622 ], [ -72.5855, 8.0656 ], [ -72.5884, 8.0677 ], [ -72.5891, 8.0705 ], [ -72.5857, 8.0779 ], [ -72.5905, 8.0832 ], [ -72.5871, 8.0869 ], [ -72.5844, 8.0938 ], [ -72.5875, 8.0972 ], [ -72.5859, 8.1028 ], [ -72.5764, 8.1099 ], [ -72.5701, 8.1095 ], [ -72.5665, 8.1133 ], [ -72.5615, 8.1122 ], [ -72.5565, 8.1175 ], [ -72.5529, 8.1163 ], [ -72.5471, 8.1214 ], [ -72.5462, 8.1266 ], [ -72.5385, 8.1324 ], [ -72.5419, 8.1448 ], [ -72.5347, 8.1507 ], [ -72.534, 8.1599 ], [ -72.5292, 8.1626 ], [ -72.5319, 8.1693 ], [ -72.529, 8.1712 ], [ -72.5305, 8.1769 ], [ -72.5361, 8.1771 ], [ -72.5391, 8.1838 ], [ -72.5371, 8.1863 ], [ -72.5312, 8.1848 ], [ -72.5291, 8.1869 ], [ -72.5253, 8.1961 ], [ -72.53, 8.1985 ], [ -72.5277, 8.2027 ], [ -72.5292, 8.2078 ], [ -72.5255, 8.2122 ], [ -72.5269, 8.2145 ], [ -72.5317, 8.2153 ], [ -72.5312, 8.22 ], [ -72.5334, 8.2229 ], [ -72.5332, 8.2252 ], [ -72.5381, 8.2208 ], [ -72.5418, 8.2202 ], [ -72.5424, 8.2169 ], [ -72.5457, 8.2152 ], [ -72.5463, 8.212 ], [ -72.5543, 8.2108 ], [ -72.5592, 8.2136 ], [ -72.5611, 8.2223 ], [ -72.5592, 8.2257 ], [ -72.5604, 8.229 ], [ -72.559, 8.2335 ], [ -72.5614, 8.241 ], [ -72.5614, 8.248 ], [ -72.5529, 8.2662 ], [ -72.5497, 8.281 ], [ -72.555, 8.2804 ], [ -72.5577, 8.282 ], [ -72.5572, 8.2841 ], [ -72.5627, 8.2863 ], [ -72.5623, 8.2806 ], [ -72.5672, 8.2825 ], [ -72.5703, 8.2809 ], [ -72.5999, 8.2826 ], [ -72.6017, 8.284 ], [ -72.608, 8.2803 ], [ -72.6042, 8.2874 ], [ -72.6065, 8.2894 ], [ -72.6049, 8.2907 ], [ -72.6061, 8.2978 ], [ -72.6021, 8.297 ], [ -72.6, 8.3023 ], [ -72.603, 8.3047 ], [ -72.6011, 8.3078 ], [ -72.6029, 8.3103 ], [ -72.6002, 8.311 ], [ -72.6043, 8.3139 ], [ -72.6018, 8.3153 ], [ -72.6008, 8.3186 ], [ -72.603, 8.321 ], [ -72.6024, 8.3233 ], [ -72.6041, 8.3242 ], [ -72.6031, 8.3277 ], [ -72.5972, 8.331 ], [ -72.5882, 8.3284 ], [ -72.5894, 8.3318 ], [ -72.5863, 8.3419 ], [ -72.5896, 8.3388 ], [ -72.5913, 8.3418 ], [ -72.5883, 8.3427 ], [ -72.5899, 8.3456 ], [ -72.5872, 8.3463 ], [ -72.587, 8.3483 ], [ -72.5845, 8.3498 ], [ -72.5865, 8.3519 ], [ -72.5835, 8.3532 ], [ -72.5847, 8.3548 ], [ -72.5834, 8.3622 ], [ -72.5854, 8.3651 ], [ -72.5854, 8.3732 ], [ -72.5835, 8.3685 ], [ -72.5736, 8.3667 ], [ -72.5686, 8.3542 ], [ -72.5707, 8.351 ], [ -72.5616, 8.3446 ], [ -72.5574, 8.3379 ], [ -72.5484, 8.3385 ], [ -72.548, 8.3218 ], [ -72.5462, 8.3212 ], [ -72.5463, 8.3192 ], [ -72.5402, 8.3136 ], [ -72.5317, 8.3107 ], [ -72.529, 8.3302 ], [ -72.5308, 8.3405 ], [ -72.5283, 8.3489 ], [ -72.5294, 8.3586 ], [ -72.5267, 8.3658 ], [ -72.521, 8.3683 ], [ -72.5196, 8.3778 ], [ -72.5193, 8.3885 ], [ -72.5224, 8.3919 ], [ -72.5215, 8.4018 ], [ -72.5135, 8.4027 ], [ -72.5106, 8.4 ], [ -72.508, 8.4017 ], [ -72.502, 8.3979 ], [ -72.504, 8.4006 ], [ -72.5044, 8.4055 ], [ -72.5, 8.4092 ], [ -72.4951, 8.409 ], [ -72.4954, 8.4182 ], [ -72.4866, 8.4189 ], [ -72.4854, 8.4242 ], [ -72.4819, 8.4296 ], [ -72.4781, 8.4302 ], [ -72.4779, 8.4273 ], [ -72.476, 8.4267 ], [ -72.4741, 8.4301 ], [ -72.4711, 8.4316 ], [ -72.4271, 8.3821 ], [ -72.4289, 8.3773 ], [ -72.4264, 8.3694 ], [ -72.4274, 8.3664 ], [ -72.4336, 8.3657 ], [ -72.4428, 8.3692 ], [ -72.4468, 8.366 ], [ -72.4467, 8.3631 ], [ -72.4446, 8.361 ], [ -72.4344, 8.3617 ], [ -72.4323, 8.36 ], [ -72.4399, 8.3515 ], [ -72.4403, 8.3432 ], [ -72.437, 8.3442 ], [ -72.4361, 8.3476 ], [ -72.4346, 8.3452 ], [ -72.438, 8.3344 ], [ -72.4443, 8.3279 ], [ -72.445, 8.3233 ], [ -72.4424, 8.3239 ], [ -72.4404, 8.3284 ], [ -72.4382, 8.3245 ], [ -72.4319, 8.3266 ], [ -72.4327, 8.3201 ], [ -72.428, 8.319 ], [ -72.4264, 8.3172 ], [ -72.4223, 8.3172 ], [ -72.4207, 8.3146 ], [ -72.4152, 8.3118 ], [ -72.4187, 8.3085 ], [ -72.416, 8.3035 ], [ -72.4112, 8.3015 ], [ -72.409, 8.2984 ], [ -72.4132, 8.2975 ], [ -72.4113, 8.2942 ], [ -72.4153, 8.2936 ], [ -72.4171, 8.2908 ], [ -72.407, 8.2879 ], [ -72.4083, 8.2844 ], [ -72.407, 8.2774 ], [ -72.4107, 8.2691 ], [ -72.4086, 8.2691 ], [ -72.4069, 8.2741 ], [ -72.4003, 8.2714 ], [ -72.393, 8.2737 ], [ -72.3916, 8.2759 ], [ -72.3856, 8.2784 ], [ -72.3896, 8.269 ], [ -72.3908, 8.2596 ], [ -72.394, 8.2589 ], [ -72.3914, 8.255 ], [ -72.3945, 8.2519 ], [ -72.3928, 8.2516 ], [ -72.3918, 8.2534 ], [ -72.3871, 8.2527 ], [ -72.3885, 8.2505 ], [ -72.3869, 8.2464 ], [ -72.3816, 8.2464 ], [ -72.3874, 8.2416 ], [ -72.3827, 8.2343 ], [ -72.3844, 8.2315 ], [ -72.3787, 8.221 ], [ -72.3807, 8.2187 ], [ -72.3757, 8.2147 ], [ -72.3775, 8.2085 ], [ -72.3741, 8.2027 ], [ -72.3724, 8.2036 ], [ -72.3726, 8.201 ], [ -72.37, 8.2007 ], [ -72.375, 8.1949 ], [ -72.3696, 8.1957 ], [ -72.3683, 8.1921 ], [ -72.3706, 8.1919 ], [ -72.3707, 8.1904 ], [ -72.3634, 8.1913 ], [ -72.3674, 8.1851 ], [ -72.3656, 8.1843 ], [ -72.3657, 8.1821 ], [ -72.3634, 8.1818 ], [ -72.3603, 8.1713 ], [ -72.3554, 8.1655 ], [ -72.3567, 8.1632 ], [ -72.3554, 8.1544 ], [ -72.3577, 8.1539 ], [ -72.3582, 8.1511 ], [ -72.3601, 8.153 ], [ -72.3608, 8.1508 ], [ -72.3658, 8.15 ], [ -72.3657, 8.1457 ], [ -72.3677, 8.1427 ], [ -72.3673, 8.1399 ], [ -72.3628, 8.1406 ], [ -72.3667, 8.1363 ], [ -72.3644, 8.1339 ], [ -72.3628, 8.1342 ], [ -72.3642, 8.1294 ], [ -72.3617, 8.1274 ], [ -72.3622, 8.1255 ], [ -72.3608, 8.1254 ], [ -72.3614, 8.1238 ], [ -72.3598, 8.1232 ], [ -72.359, 8.1202 ], [ -72.3625, 8.1198 ], [ -72.3637, 8.1211 ], [ -72.3639, 8.1191 ], [ -72.3674, 8.1193 ], [ -72.3696, 8.1172 ], [ -72.37, 8.1138 ], [ -72.3726, 8.1138 ], [ -72.3714, 8.1125 ], [ -72.3731, 8.1122 ], [ -72.3749, 8.1074 ], [ -72.3721, 8.1039 ], [ -72.3703, 8.0936 ], [ -72.3579, 8.0887 ], [ -72.3508, 8.0802 ], [ -72.352, 8.0725 ], [ -72.3478, 8.0585 ], [ -72.3485, 8.0457 ], [ -72.3465, 8.0369 ], [ -72.35, 8.0326 ], [ -72.3536, 8.0311 ], [ -72.3552, 8.0266 ], [ -72.3476, 8.018 ], [ -72.3498, 8.0066 ], [ -72.349, 8.0037 ], [ -72.351, 8.0034 ], [ -72.3625, 8.0099 ], [ -72.366, 8.0176 ], [ -72.3682, 8.0196 ], [ -72.3715, 8.0197 ], [ -72.3775, 8.0249 ], [ -72.3785, 8.0298 ], [ -72.3837, 8.034 ], [ -72.3903, 8.0349 ], [ -72.3945, 8.032 ], [ -72.3975, 8.0328 ], [ -72.3983, 8.0316 ], [ -72.4034, 8.0346 ], [ -72.4155, 8.0336 ], [ -72.4173, 8.0314 ], [ -72.4141, 8.021 ], [ -72.4166, 8.021 ], [ -72.4176, 8.0182 ], [ -72.4201, 8.0171 ], [ -72.4191, 8.0118 ], [ -72.4231, 8.0087 ], [ -72.4222, 8.0029 ], [ -72.4193, 8.0014 ], [ -72.4204, 7.9957 ], [ -72.4229, 7.9951 ], [ -72.4276, 7.9894 ], [ -72.4307, 7.9898 ], [ -72.4329, 7.9925 ], [ -72.4389, 7.9919 ], [ -72.4411, 7.9862 ], [ -72.4443, 7.9842 ], [ -72.4413, 7.9801 ], [ -72.4418, 7.976 ], [ -72.4492, 7.9715 ], [ -72.4474, 7.9686 ], [ -72.4602, 7.9667 ], [ -72.4619, 7.964 ], [ -72.4756, 7.9601 ], [ -72.476, 7.9557 ], [ -72.4839, 7.9509 ], [ -72.4833, 7.9481 ], [ -72.488, 7.9436 ], [ -72.4864, 7.9407 ], [ -72.4878, 7.9374 ], [ -72.484, 7.9343 ], [ -72.485, 7.9312 ], [ -72.4811, 7.9295 ], [ -72.4799, 7.9265 ], [ -72.4765, 7.9306 ], [ -72.4748, 7.9281 ], [ -72.4776, 7.9236 ], [ -72.4745, 7.9234 ], [ -72.4738, 7.9249 ], [ -72.4669, 7.9225 ], [ -72.4678, 7.9187 ], [ -72.4648, 7.919 ], [ -72.4619, 7.9137 ], [ -72.4583, 7.9117 ], [ -72.4587, 7.9089 ], [ -72.463, 7.9083 ], [ -72.4604, 7.9026 ], [ -72.4629, 7.8907 ], [ -72.4624, 7.8828 ], [ -72.461, 7.8812 ], [ -72.4645, 7.8807 ], [ -72.4645, 7.8757 ], [ -72.4787, 7.8758 ], [ -72.486, 7.8684 ], [ -72.4827, 7.864 ], [ -72.488, 7.8585 ], [ -72.4925, 7.8618 ], [ -72.4959, 7.8681 ], [ -72.4986, 7.8662 ], [ -72.5014, 7.8679 ], [ -72.5069, 7.8579 ], [ -72.5078, 7.8497 ], [ -72.5115, 7.8423 ], [ -72.5199, 7.8352 ], [ -72.5218, 7.8307 ], [ -72.5209, 7.824 ], [ -72.5234, 7.8168 ], [ -72.5225, 7.8085 ], [ -72.5249, 7.7976 ], [ -72.5233, 7.7873 ], [ -72.5251, 7.7785 ], [ -72.5311, 7.7681 ], [ -72.5325, 7.7558 ], [ -72.5425, 7.7467 ], [ -72.5456, 7.746 ], [ -72.5504, 7.7419 ], [ -72.5601, 7.7388 ], [ -72.5757, 7.7239 ] ] ] ] } },
{ "type": "Feature", "properties": { "gid": "COL.23.35_2", "name": "Sardinata", "municipio": "Sardinata", "departamento": "NortedeSantander", "year": 2023, "predicted_ha": 2461.2427412357929, "official_ha": 4299.81, "ratio": 0.57240732526223081 }, "geometry": { "type": "MultiPolygon", "coordinates": [ [ [ [ -72.9605, 8.1875 ], [ -72.9547, 8.1911 ], [ -72.9616, 8.2031 ], [ -72.9628, 8.2098 ], [ -72.9713, 8.2169 ], [ -72.9757, 8.2268 ], [ -72.9712, 8.2297 ], [ -72.9701, 8.2374 ], [ -72.9803, 8.245 ], [ -72.9878, 8.2528 ], [ -72.9953, 8.2692 ], [ -72.9897, 8.276 ], [ -72.9907, 8.2824 ], [ -72.9871, 8.2922 ], [ -72.9823, 8.2972 ], [ -72.9778, 8.2965 ], [ -72.9753, 8.2984 ], [ -72.9751, 8.301 ], [ -72.9827, 8.3129 ], [ -72.9806, 8.3163 ], [ -72.9803, 8.3214 ], [ -72.9751, 8.3216 ], [ -72.9714, 8.3272 ], [ -72.9735, 8.3351 ], [ -72.9792, 8.3419 ], [ -72.9836, 8.3521 ], [ -72.9825, 8.3609 ], [ -72.9803, 8.3641 ], [ -72.9911, 8.3751 ], [ -72.9943, 8.3898 ], [ -72.9921, 8.3949 ], [ -72.9882, 8.3985 ], [ -72.9903, 8.4051 ], [ -72.987, 8.4118 ], [ -72.976, 8.4101 ], [ -72.9735, 8.4129 ], [ -72.9735, 8.4169 ], [ -72.9695, 8.4186 ], [ -72.9656, 8.4242 ], [ -72.9684, 8.4355 ], [ -72.9667, 8.441 ], [ -72.9685, 8.4449 ], [ -72.9644, 8.4537 ], [ -72.9664, 8.4668 ], [ -72.9655, 8.4711 ], [ -72.9429, 8.4773 ], [ -72.9413, 8.4916 ], [ -72.9393, 8.4924 ], [ -72.9358, 8.4991 ], [ -72.9397, 8.5061 ], [ -72.9427, 8.506 ], [ -72.9424, 8.5092 ], [ -72.9439, 8.5106 ], [ -72.9405, 8.5123 ], [ -72.9365, 8.5117 ], [ -72.9368, 8.5143 ], [ -72.9342, 8.5134 ], [ -72.9288, 8.5162 ], [ -72.9257, 8.5147 ], [ -72.9223, 8.5172 ], [ -72.9179, 8.5164 ], [ -72.917, 8.5212 ], [ -72.9113, 8.52 ], [ -72.9094, 8.5221 ], [ -72.9039, 8.5231 ], [ -72.8946, 8.5208 ], [ -72.8927, 8.5139 ], [ -72.8892, 8.5126 ], [ -72.8867, 8.5063 ], [ -72.8795, 8.501 ], [ -72.887, 8.4852 ], [ -72.8911, 8.4808 ], [ -72.892, 8.4725 ], [ -72.8955, 8.466 ], [ -72.8937, 8.4573 ], [ -72.8865, 8.4535 ], [ -72.8905, 8.4425 ], [ -72.89, 8.4368 ], [ -72.883, 8.4349 ], [ -72.8629, 8.438 ], [ -72.8569, 8.4347 ], [ -72.8528, 8.4347 ], [ -72.8441, 8.4194 ], [ -72.8379, 8.4186 ], [ -72.8387, 8.4165 ], [ -72.8345, 8.4147 ], [ -72.8306, 8.4146 ], [ -72.8279, 8.4193 ], [ -72.8218, 8.4185 ], [ -72.8196, 8.422 ], [ -72.809, 8.427 ], [ -72.8027, 8.4229 ], [ -72.7939, 8.4242 ], [ -72.7833, 8.4321 ], [ -72.7784, 8.4309 ], [ -72.7684, 8.4248 ], [ -72.7604, 8.4246 ], [ -72.7533, 8.4186 ], [ -72.7495, 8.418 ], [ -72.7304, 8.4254 ], [ -72.7267, 8.4255 ], [ -72.7124, 8.4336 ], [ -72.7077, 8.4292 ], [ -72.7052, 8.4319 ], [ -72.7015, 8.431 ], [ -72.6962, 8.4384 ], [ -72.6804, 8.4244 ], [ -72.6783, 8.4253 ], [ -72.6777, 8.428 ], [ -72.6725, 8.4267 ], [ -72.6593, 8.411 ], [ -72.6524, 8.4155 ], [ -72.6413, 8.4144 ], [ -72.6402, 8.4203 ], [ -72.6378, 8.4206 ], [ -72.6403, 8.4229 ], [ -72.6385, 8.4279 ], [ -72.6351, 8.4282 ], [ -72.6346, 8.4318 ], [ -72.6319, 8.4341 ], [ -72.6297, 8.4331 ], [ -72.6275, 8.4365 ], [ -72.6253, 8.4371 ], [ -72.625, 8.4396 ], [ -72.6217, 8.4406 ], [ -72.624, 8.4434 ], [ -72.6215, 8.4441 ], [ -72.622, 8.4456 ], [ -72.6205, 8.4463 ], [ -72.6208, 8.4503 ], [ -72.6184, 8.4486 ], [ -72.611, 8.4292 ], [ -72.6063, 8.4265 ], [ -72.6042, 8.4228 ], [ -72.6044, 8.4195 ], [ -72.601, 8.4111 ], [ -72.6045, 8.4078 ], [ -72.6049, 8.4049 ], [ -72.6036, 8.4034 ], [ -72.5994, 8.4043 ], [ -72.5982, 8.4033 ], [ -72.5986, 8.4014 ], [ -72.6028, 8.3988 ], [ -72.5975, 8.3931 ], [ -72.5986, 8.3912 ], [ -72.6046, 8.3895 ], [ -72.6098, 8.3828 ], [ -72.6087, 8.3771 ], [ -72.6119, 8.3735 ], [ -72.6115, 8.37 ], [ -72.6166, 8.3678 ], [ -72.6174, 8.3613 ], [ -72.6209, 8.3603 ], [ -72.6274, 8.3659 ], [ -72.6326, 8.3667 ], [ -72.6333, 8.3635 ], [ -72.6385, 8.3635 ], [ -72.6433, 8.3575 ], [ -72.6476, 8.3578 ], [ -72.6505, 8.3542 ], [ -72.6543, 8.3542 ], [ -72.6557, 8.349 ], [ -72.6652, 8.3441 ], [ -72.6692, 8.345 ], [ -72.6738, 8.3411 ], [ -72.6801, 8.3448 ], [ -72.6833, 8.3403 ], [ -72.6872, 8.3437 ], [ -72.6904, 8.3395 ], [ -72.7034, 8.3376 ], [ -72.7085, 8.3351 ], [ -72.7111, 8.3331 ], [ -72.7139, 8.3271 ], [ -72.7204, 8.3273 ], [ -72.7212, 8.3253 ], [ -72.7162, 8.3186 ], [ -72.7179, 8.3149 ], [ -72.7172, 8.3113 ], [ -72.7078, 8.31 ], [ -72.708, 8.3077 ], [ -72.712, 8.3049 ], [ -72.7169, 8.3067 ], [ -72.7174, 8.3042 ], [ -72.7127, 8.2996 ], [ -72.7203, 8.2957 ], [ -72.7224, 8.2983 ], [ -72.7242, 8.2965 ], [ -72.7305, 8.299 ], [ -72.74, 8.2962 ], [ -72.7469, 8.2783 ], [ -72.7485, 8.2699 ], [ -72.7457, 8.2658 ], [ -72.74, 8.2651 ], [ -72.7353, 8.2625 ], [ -72.7301, 8.2542 ], [ -72.7265, 8.2512 ], [ -72.7208, 8.2646 ], [ -72.7119, 8.2682 ], [ -72.7112, 8.2761 ], [ -72.7082, 8.2793 ], [ -72.7039, 8.278 ], [ -72.6978, 8.2729 ], [ -72.6936, 8.2729 ], [ -72.6907, 8.2864 ], [ -72.6785, 8.2876 ], [ -72.6756, 8.2929 ], [ -72.6765, 8.2954 ], [ -72.6744, 8.2956 ], [ -72.6743, 8.2995 ], [ -72.6712, 8.3006 ], [ -72.6707, 8.3026 ], [ -72.6657, 8.3035 ], [ -72.6633, 8.2996 ], [ -72.6564, 8.298 ], [ -72.6566, 8.2963 ], [ -72.6551, 8.2965 ], [ -72.6548, 8.295 ], [ -72.65, 8.296 ], [ -72.6496, 8.2989 ], [ -72.6449, 8.3025 ], [ -72.6475, 8.304 ], [ -72.646, 8.3048 ], [ -72.6461, 8.3095 ], [ -72.6417, 8.3118 ], [ -72.6395, 8.3095 ], [ -72.6374, 8.3121 ], [ -72.6353, 8.3074 ], [ -72.6299, 8.3079 ], [ -72.626, 8.3128 ], [ -72.6214, 8.3109 ], [ -72.6175, 8.3159 ], [ -72.6098, 8.316 ], [ -72.6027, 8.3234 ], [ -72.603, 8.321 ], [ -72.601, 8.3202 ], [ -72.6008, 8.3182 ], [ -72.6018, 8.3153 ], [ -72.6043, 8.3139 ], [ -72.6003, 8.3114 ], [ -72.6008, 8.3099 ], [ -72.603, 8.3101 ], [ -72.6011, 8.308 ], [ -72.603, 8.3047 ], [ -72.6, 8.3023 ], [ -72.6021, 8.297 ], [ -72.6062, 8.2976 ], [ -72.6049, 8.2907 ], [ -72.6065, 8.2894 ], [ -72.6042, 8.2874 ], [ -72.6081, 8.2805 ], [ -72.6051, 8.276 ], [ -72.6129, 8.2719 ], [ -72.617, 8.2736 ], [ -72.6158, 8.2682 ], [ -72.6176, 8.266 ], [ -72.6124, 8.2608 ], [ -72.6126, 8.2593 ], [ -72.6024, 8.2579 ], [ -72.599, 8.2545 ], [ -72.5999, 8.2532 ], [ -72.5968, 8.2503 ], [ -72.5977, 8.2466 ], [ -72.5963, 8.2436 ], [ -72.6005, 8.2372 ], [ -72.6036, 8.2367 ], [ -72.6061, 8.2341 ], [ -72.6074, 8.226 ], [ -72.6109, 8.2249 ], [ -72.6129, 8.2264 ], [ -72.618, 8.2265 ], [ -72.6202, 8.2238 ], [ -72.6272, 8.2234 ], [ -72.63, 8.2208 ], [ -72.6343, 8.2213 ], [ -72.6357, 8.2192 ], [ -72.6423, 8.2205 ], [ -72.6456, 8.2188 ], [ -72.6484, 8.2209 ], [ -72.6519, 8.2092 ], [ -72.6539, 8.2072 ], [ -72.6536, 8.1962 ], [ -72.656, 8.1921 ], [ -72.6545, 8.1869 ], [ -72.6574, 8.1815 ], [ -72.6561, 8.1794 ], [ -72.6475, 8.1789 ], [ -72.6464, 8.1769 ], [ -72.648, 8.1699 ], [ -72.6451, 8.164 ], [ -72.6505, 8.1534 ], [ -72.6497, 8.1509 ], [ -72.6528, 8.1481 ], [ -72.6592, 8.1466 ], [ -72.659, 8.1421 ], [ -72.6675, 8.1422 ], [ -72.6733, 8.1394 ], [ -72.6801, 8.1403 ], [ -72.683, 8.1379 ], [ -72.6867, 8.1376 ], [ -72.6858, 8.1355 ], [ -72.688, 8.1332 ], [ -72.6884, 8.1229 ], [ -72.6901, 8.121 ], [ -72.6912, 8.1141 ], [ -72.6926, 8.1122 ], [ -72.6979, 8.1107 ], [ -72.7043, 8.1015 ], [ -72.7049, 8.0965 ], [ -72.7033, 8.0953 ], [ -72.7057, 8.0939 ], [ -72.7064, 8.0871 ], [ -72.709, 8.084 ], [ -72.7107, 8.0698 ], [ -72.718, 8.0585 ], [ -72.7336, 8.0439 ], [ -72.7418, 8.0421 ], [ -72.7373, 8.0384 ], [ -72.7406, 8.0288 ], [ -72.7469, 8.0202 ], [ -72.7625, 8.0142 ], [ -72.7662, 8.0002 ], [ -72.7714, 7.9997 ], [ -72.7728, 8.0014 ], [ -72.7801, 8.0018 ], [ -72.7813, 8.0037 ], [ -72.7855, 8.0021 ], [ -72.7863, 8.0048 ], [ -72.7933, 8.006 ], [ -72.796, 8.0049 ], [ -72.798, 8.0017 ], [ -72.8118, 7.9991 ], [ -72.821, 7.9941 ], [ -72.8239, 7.9967 ], [ -72.8248, 8.0039 ], [ -72.8285, 8.0087 ], [ -72.8331, 8.0058 ], [ -72.8356, 8.0062 ], [ -72.8406, 8.016 ], [ -72.8465, 8.0169 ], [ -72.852, 8.0261 ], [ -72.8543, 8.0254 ], [ -72.8504, 8.0297 ], [ -72.851, 8.0317 ], [ -72.8462, 8.0343 ], [ -72.8465, 8.0367 ], [ -72.8435, 8.0365 ], [ -72.8438, 8.0383 ], [ -72.8381, 8.0439 ], [ -72.835, 8.0497 ], [ -72.8354, 8.0518 ], [ -72.8334, 8.0536 ], [ -72.8364, 8.0559 ], [ -72.8368, 8.0632 ], [ -72.8388, 8.0656 ], [ -72.8357, 8.0669 ], [ -72.8342, 8.0771 ], [ -72.8383, 8.0785 ], [ -72.8382, 8.0815 ], [ -72.8415, 8.0801 ], [ -72.8453, 8.0825 ], [ -72.8432, 8.088 ], [ -72.8449, 8.0901 ], [ -72.8522, 8.0883 ], [ -72.8539, 8.0863 ], [ -72.8584, 8.0876 ], [ -72.8613, 8.095 ], [ -72.86, 8.0998 ], [ -72.8644, 8.1031 ], [ -72.8632, 8.1067 ], [ -72.8653, 8.1103 ], [ -72.8749, 8.1094 ], [ -72.8734, 8.1121 ], [ -72.8749, 8.1149 ], [ -72.873, 8.1171 ], [ -72.8778, 8.1173 ], [ -72.873, 8.1209 ], [ -72.8769, 8.1225 ], [ -72.8767, 8.1309 ], [ -72.8782, 8.1317 ], [ -72.8792, 8.1298 ], [ -72.8828, 8.1285 ], [ -72.8865, 8.1333 ], [ -72.8959, 8.1347 ], [ -72.8992, 8.1404 ], [ -72.9025, 8.141 ], [ -72.9031, 8.1437 ], [ -72.9064, 8.1432 ], [ -72.9076, 8.1445 ], [ -72.9114, 8.141 ], [ -72.9129, 8.1469 ], [ -72.9168, 8.1513 ], [ -72.9165, 8.1552 ], [ -72.9204, 8.1585 ], [ -72.9267, 8.1573 ], [ -72.926, 8.1624 ], [ -72.9311, 8.1656 ], [ -72.9316, 8.1683 ], [ -72.9334, 8.1695 ], [ -72.9355, 8.1673 ], [ -72.9354, 8.171 ], [ -72.9446, 8.1729 ], [ -72.9448, 8.1747 ], [ -72.9473, 8.1753 ], [ -72.9531, 8.1825 ], [ -72.9605, 8.1875 ] ] ] ] } },
{ "type": "Feature", "properties": { "gid": "COL.23.36_2", "name": "Teorama", "municipio": "Teorama", "departamento": "NortedeSantander", "year": 2023, "predicted_ha": 3542.0405658486488, "official_ha": 3956.28, "ratio": 0.89529572372244848 }, "geometry": { "type": "MultiPolygon", "coordinates": [ [ [ [ -73.3243, 8.4049 ], [ -73.3235, 8.4116 ], [ -73.3357, 8.4183 ], [ -73.3371, 8.4224 ], [ -73.3369, 8.4274 ], [ -73.3342, 8.4316 ], [ -73.3302, 8.433 ], [ -73.3295, 8.4383 ], [ -73.3268, 8.4403 ], [ -73.3281, 8.4429 ], [ -73.3258, 8.4479 ], [ -73.3266, 8.4491 ], [ -73.3252, 8.4492 ], [ -73.3255, 8.4529 ], [ -73.3234, 8.4527 ], [ -73.3239, 8.4547 ], [ -73.3225, 8.4545 ], [ -73.3204, 8.4586 ], [ -73.3197, 8.4573 ], [ -73.3186, 8.4583 ], [ -73.3195, 8.4633 ], [ -73.3181, 8.4661 ], [ -73.3135, 8.4688 ], [ -73.3149, 8.4741 ], [ -73.3131, 8.4772 ], [ -73.3065, 8.4771 ], [ -73.3077, 8.48 ], [ -73.3063, 8.4822 ], [ -73.3019, 8.4822 ], [ -73.2995, 8.4798 ], [ -73.2997, 8.4839 ], [ -73.2976, 8.4841 ], [ -73.2935, 8.4884 ], [ -73.2871, 8.4894 ], [ -73.284, 8.4866 ], [ -73.2914, 8.4995 ], [ -73.29, 8.5053 ], [ -73.2954, 8.5099 ], [ -73.2921, 8.5179 ], [ -73.2978, 8.5222 ], [ -73.2953, 8.5431 ], [ -73.3129, 8.5533 ], [ -73.3128, 8.5611 ], [ -73.3158, 8.5672 ], [ -73.3092, 8.5854 ], [ -73.3025, 8.5913 ], [ -73.3047, 8.5994 ], [ -73.298, 8.6233 ], [ -73.289, 8.6245 ], [ -73.2775, 8.6319 ], [ -73.2738, 8.6413 ], [ -73.2539, 8.6589 ], [ -73.2508, 8.6646 ], [ -73.2503, 8.6746 ], [ -73.2482, 8.6825 ], [ -73.2424, 8.6871 ], [ -73.2442, 8.6909 ], [ -73.2433, 8.6944 ], [ -73.2467, 8.7107 ], [ -73.2487, 8.7135 ], [ -73.2457, 8.719 ], [ -73.2461, 8.7302 ], [ -73.2333, 8.7405 ], [ -73.2316, 8.7502 ], [ -73.2348, 8.7595 ], [ -73.2343, 8.7632 ], [ -73.231, 8.7664 ], [ -73.2283, 8.7747 ], [ -73.2218, 8.7841 ], [ -73.2154, 8.7869 ], [ -73.2141, 8.796 ], [ -73.2117, 8.8 ], [ -73.2136, 8.8038 ], [ -73.2131, 8.8084 ], [ -73.196, 8.8218 ], [ -73.1906, 8.8315 ], [ -73.1825, 8.8414 ], [ -73.1749, 8.846 ], [ -73.1633, 8.8564 ], [ -73.1575, 8.857 ], [ -73.1546, 8.8647 ], [ -73.1562, 8.8773 ], [ -73.154, 8.8788 ], [ -73.1468, 8.8787 ], [ -73.1497, 8.8912 ], [ -73.1344, 8.8985 ], [ -73.1337, 8.9069 ], [ -73.1471, 8.9127 ], [ -73.1486, 8.9193 ], [ -73.1603, 8.9269 ], [ -73.1613, 8.9344 ], [ -73.1595, 8.9426 ], [ -73.1597, 8.9506 ], [ -73.1542, 8.9607 ], [ -73.154, 8.965 ], [ -73.1501, 8.9675 ], [ -73.1444, 8.9684 ], [ -73.146, 8.9769 ], [ -73.1438, 8.9784 ], [ -73.1432, 8.9816 ], [ -73.1377, 8.9859 ], [ -73.1343, 8.998 ], [ -73.1347, 9.0066 ], [ -73.1288, 9.0176 ], [ -73.1189, 9.0258 ], [ -73.1192, 9.0305 ], [ -73.1166, 9.0376 ], [ -73.1018, 9.0508 ], [ -73.0968, 9.0528 ], [ -73.0817, 9.053 ], [ -73.0749, 9.0553 ], [ -73.0683, 9.0554 ], [ -73.065, 9.0685 ], [ -73.0508, 9.0742 ], [ -73.0449, 9.0803 ], [ -73.0404, 9.0774 ], [ -73.0325, 9.059 ], [ -73.0246, 9.0599 ], [ -73.0204, 9.0554 ], [ -73.0127, 9.0569 ], [ -73.0115, 9.0632 ], [ -73.0082, 9.065 ], [ -73.0084, 9.0707 ], [ -73.0017, 9.076 ], [ -73.0042, 9.0806 ], [ -73.0015, 9.0806 ], [ -73.0002, 9.0827 ], [ -73.0005, 9.0851 ], [ -73.0023, 9.0851 ], [ -73.0053, 9.0884 ], [ -73.0057, 9.0939 ], [ -73.0037, 9.0949 ], [ -73.0029, 9.0977 ], [ -73.0064, 9.1001 ], [ -73.0038, 9.1028 ], [ -73.0065, 9.1108 ], [ -73.0042, 9.1099 ], [ -73.0066, 9.1125 ], [ -73.0048, 9.1141 ], [ -73.0067, 9.118 ], [ -73.0099, 9.1167 ], [ -73.0156, 9.1221 ], [ -73.011, 9.126 ], [ -73.0144, 9.129 ], [ -73.013, 9.1307 ], [ -73.0071, 9.1312 ], [ -73.0074, 9.1343 ], [ -73.0102, 9.1366 ], [ -73.0083, 9.1375 ], [ -73.0077, 9.1411 ], [ -73.0055, 9.1429 ], [ -73.0092, 9.1457 ], [ -73.0083, 9.1478 ], [ -73.0018, 9.1458 ], [ -73.0004, 9.1429 ], [ -72.9924, 9.1453 ], [ -72.9908, 9.1471 ], [ -72.9868, 9.1465 ], [ -72.9858, 9.1429 ], [ -72.9719, 9.1365 ], [ -72.9693, 9.1293 ], [ -72.9649, 9.1258 ], [ -72.96, 9.1143 ], [ -72.9528, 9.1076 ], [ -72.9472, 9.1063 ], [ -72.9467, 9.1027 ], [ -72.9509, 9.0976 ], [ -72.9473, 9.0926 ], [ -72.9519, 9.0929 ], [ -72.9539, 9.0898 ], [ -72.9574, 9.0888 ], [ -72.9621, 9.0813 ], [ -72.9619, 9.0755 ], [ -72.9593, 9.0725 ], [ -72.96, 9.0694 ], [ -72.9538, 9.0662 ], [ -72.9529, 9.0634 ], [ -72.9496, 9.0636 ], [ -72.9453, 9.0604 ], [ -72.9418, 9.0608 ], [ -72.938, 9.0587 ], [ -72.9316, 9.05 ], [ -72.9306, 9.0448 ], [ -72.9342, 9.0433 ], [ -72.9477, 9.0299 ], [ -72.9472, 9.0277 ], [ -72.9497, 9.0238 ], [ -72.9531, 9.025 ], [ -72.9639, 9.0236 ], [ -72.9711, 9.0201 ], [ -72.9808, 9.0276 ], [ -72.9809, 9.0292 ], [ -72.9848, 9.0279 ], [ -72.9883, 9.0309 ], [ -72.9886, 9.0345 ], [ -72.993, 9.0407 ], [ -73.0539, 8.9897 ], [ -73.0646, 8.9831 ], [ -73.0665, 8.9673 ], [ -73.064, 8.961 ], [ -73.0672, 8.9582 ], [ -73.0692, 8.9497 ], [ -73.0677, 8.9433 ], [ -73.0694, 8.9369 ], [ -73.0692, 8.9254 ], [ -73.0734, 8.9205 ], [ -73.0715, 8.9185 ], [ -73.0656, 8.9172 ], [ -73.0655, 8.9138 ], [ -73.0615, 8.9072 ], [ -73.0625, 8.8986 ], [ -73.0563, 8.8903 ], [ -73.0531, 8.8889 ], [ -73.0553, 8.8862 ], [ -73.0516, 8.8759 ], [ -73.0584, 8.8717 ], [ -73.0598, 8.8661 ], [ -73.0623, 8.8662 ], [ -73.0667, 8.854 ], [ -73.0652, 8.8454 ], [ -73.0612, 8.8403 ], [ -73.0551, 8.8362 ], [ -73.0537, 8.8259 ], [ -73.0474, 8.8122 ], [ -73.052, 8.8026 ], [ -73.0542, 8.788 ], [ -73.0512, 8.7782 ], [ -73.0515, 8.7733 ], [ -73.0565, 8.7649 ], [ -73.0604, 8.7665 ], [ -73.0698, 8.762 ], [ -73.0686, 8.7554 ], [ -73.07, 8.7529 ], [ -73.076, 8.7548 ], [ -73.0812, 8.7597 ], [ -73.0928, 8.7565 ], [ -73.0976, 8.7454 ], [ -73.0972, 8.7406 ], [ -73.0992, 8.7385 ], [ -73.0984, 8.7267 ], [ -73.0997, 8.7255 ], [ -73.0975, 8.7197 ], [ -73.1021, 8.7169 ], [ -73.1037, 8.7138 ], [ -73.1082, 8.713 ], [ -73.1106, 8.7083 ], [ -73.1197, 8.6998 ], [ -73.12, 8.6961 ], [ -73.1279, 8.6949 ], [ -73.1306, 8.69 ], [ -73.1356, 8.6868 ], [ -73.1434, 8.6765 ], [ -73.1476, 8.6743 ], [ -73.1501, 8.6645 ], [ -73.1489, 8.6584 ], [ -73.1532, 8.6528 ], [ -73.1558, 8.6313 ], [ -73.1637, 8.6224 ], [ -73.1664, 8.6171 ], [ -73.1626, 8.6124 ], [ -73.1634, 8.6078 ], [ -73.1653, 8.6071 ], [ -73.1642, 8.6033 ], [ -73.1621, 8.6038 ], [ -73.1604, 8.5999 ], [ -73.157, 8.6001 ], [ -73.1587, 8.5961 ], [ -73.1584, 8.5913 ], [ -73.1616, 8.5875 ], [ -73.1612, 8.5855 ], [ -73.1579, 8.5844 ], [ -73.1579, 8.5782 ], [ -73.161, 8.575 ], [ -73.1576, 8.5725 ], [ -73.1655, 8.5644 ], [ -73.1702, 8.5544 ], [ -73.1758, 8.5533 ], [ -73.1858, 8.5562 ], [ -73.1977, 8.5542 ], [ -73.2018, 8.5513 ], [ -73.2015, 8.545 ], [ -73.2056, 8.5399 ], [ -73.2204, 8.5302 ], [ -73.2243, 8.5163 ], [ -73.2185, 8.5085 ], [ -73.2175, 8.4992 ], [ -73.2212, 8.4937 ], [ -73.2305, 8.4894 ], [ -73.2333, 8.4863 ], [ -73.2349, 8.4707 ], [ -73.2515, 8.4699 ], [ -73.2463, 8.4615 ], [ -73.2474, 8.4528 ], [ -73.2464, 8.4491 ], [ -73.2534, 8.451 ], [ -73.2527, 8.4534 ], [ -73.2555, 8.457 ], [ -73.2582, 8.4561 ], [ -73.2596, 8.4609 ], [ -73.2624, 8.4589 ], [ -73.269, 8.4598 ], [ -73.2687, 8.457 ], [ -73.2717, 8.4524 ], [ -73.2673, 8.4435 ], [ -73.2617, 8.4394 ], [ -73.261, 8.4335 ], [ -73.2632, 8.4314 ], [ -73.2617, 8.4304 ], [ -73.263, 8.4273 ], [ -73.2671, 8.4272 ], [ -73.2711, 8.4222 ], [ -73.2714, 8.4185 ], [ -73.2745, 8.4166 ], [ -73.2734, 8.4129 ], [ -73.2714, 8.412 ], [ -73.2721, 8.4086 ], [ -73.2737, 8.4079 ], [ -73.276, 8.4099 ], [ -73.2772, 8.408 ], [ -73.2761, 8.4056 ], [ -73.2789, 8.4037 ], [ -73.2756, 8.4014 ], [ -73.2737, 8.3973 ], [ -73.2753, 8.3937 ], [ -73.2745, 8.3881 ], [ -73.2795, 8.3915 ], [ -73.2809, 8.3953 ], [ -73.2858, 8.3952 ], [ -73.2877, 8.3994 ], [ -73.2924, 8.3886 ], [ -73.297, 8.3833 ], [ -73.2973, 8.3799 ], [ -73.3011, 8.3765 ], [ -73.3066, 8.3768 ], [ -73.3075, 8.3746 ], [ -73.3096, 8.3749 ], [ -73.3119, 8.3725 ], [ -73.3201, 8.382 ], [ -73.3183, 8.3877 ], [ -73.319, 8.4005 ], [ -73.3219, 8.4043 ], [ -73.3243, 8.4049 ] ] ] ] } },
{ "type": "Feature", "properties": { "gid": "COL.23.37_2", "name": "Tibú", "municipio": "Tibú", "departamento": "NortedeSantander", "year": 2023, "predicted_ha": 22171.214009789528, "official_ha": 23029.68, "ratio": 0.96272349462908424 }, "geometry": { "type": "MultiPolygon", "coordinates": [ [ [ [ -73.0178, 8.5477 ], [ -73.0181, 8.5537 ], [ -73.0162, 8.5584 ], [ -72.9899, 8.579 ], [ -72.9784, 8.5822 ], [ -72.9721, 8.5822 ], [ -72.9663, 8.5862 ], [ -72.9577, 8.5873 ], [ -72.9535, 8.5863 ], [ -72.9524, 8.5829 ], [ -72.9494, 8.5829 ], [ -72.947, 8.5789 ], [ -72.9412, 8.5771 ], [ -72.9379, 8.574 ], [ -72.9321, 8.5778 ], [ -72.929, 8.5778 ], [ -72.9161, 8.5833 ], [ -72.9119, 8.5883 ], [ -72.9055, 8.6015 ], [ -72.9098, 8.6034 ], [ -72.9056, 8.6103 ], [ -72.9086, 8.6103 ], [ -72.9076, 8.6156 ], [ -72.9118, 8.6226 ], [ -72.91, 8.6258 ], [ -72.9123, 8.6255 ], [ -72.9141, 8.6319 ], [ -72.9129, 8.634 ], [ -72.9149, 8.6352 ], [ -72.9088, 8.6377 ], [ -72.9137, 8.6406 ], [ -72.9167, 8.6401 ], [ -72.9114, 8.6444 ], [ -72.9133, 8.6454 ], [ -72.9145, 8.6491 ], [ -72.9175, 8.648 ], [ -72.9176, 8.654 ], [ -72.9145, 8.6575 ], [ -72.9178, 8.6569 ], [ -72.9182, 8.6614 ], [ -72.9141, 8.6617 ], [ -72.911, 8.6665 ], [ -72.9159, 8.6674 ], [ -72.917, 8.6702 ], [ -72.9187, 8.6689 ], [ -72.9202, 8.6749 ], [ -72.9183, 8.6782 ], [ -72.9229, 8.6801 ], [ -72.925, 8.6868 ], [ -72.9229, 8.6913 ], [ -72.9205, 8.6872 ], [ -72.9184, 8.6859 ], [ -72.9163, 8.6866 ], [ -72.9139, 8.688 ], [ -72.9153, 8.6895 ], [ -72.9137, 8.6929 ], [ -72.9165, 8.6933 ], [ -72.9157, 8.6916 ], [ -72.9172, 8.6908 ], [ -72.9217, 8.6927 ], [ -72.9202, 8.6957 ], [ -72.9207, 8.7027 ], [ -72.915, 8.7037 ], [ -72.9196, 8.7062 ], [ -72.9166, 8.7119 ], [ -72.9263, 8.7287 ], [ -72.9404, 8.7362 ], [ -72.9412, 8.7583 ], [ -72.9431, 8.7589 ], [ -72.946, 8.7565 ], [ -72.9547, 8.755 ], [ -72.9599, 8.764 ], [ -72.9549, 8.7838 ], [ -72.9523, 8.7854 ], [ -72.9437, 8.7837 ], [ -72.9427, 8.7892 ], [ -72.9449, 8.7935 ], [ -72.9514, 8.7961 ], [ -72.9531, 8.803 ], [ -72.9656, 8.8101 ], [ -72.9639, 8.815 ], [ -72.9531, 8.8277 ], [ -72.9471, 8.8387 ], [ -72.9496, 8.8427 ], [ -72.9511, 8.8498 ], [ -72.9534, 8.852 ], [ -72.9635, 8.8531 ], [ -72.9664, 8.8557 ], [ -72.9671, 8.8636 ], [ -72.9716, 8.8581 ], [ -72.9754, 8.8585 ], [ -72.9746, 8.864 ], [ -72.9697, 8.8721 ], [ -72.9711, 8.8776 ], [ -72.9692, 8.885 ], [ -72.9703, 8.8891 ], [ -72.9716, 8.8835 ], [ -72.985, 8.8821 ], [ -72.9869, 8.8806 ], [ -72.9902, 8.8828 ], [ -72.9935, 8.879 ], [ -72.9992, 8.8844 ], [ -73.0015, 8.8848 ], [ -73.0029, 8.8884 ], [ -73.0114, 8.8788 ], [ -73.0197, 8.8762 ], [ -73.0214, 8.8774 ], [ -73.023, 8.8742 ], [ -73.0268, 8.8756 ], [ -73.0443, 8.8661 ], [ -73.0553, 8.8645 ], [ -73.0591, 8.8679 ], [ -73.0584, 8.8717 ], [ -73.0516, 8.8759 ], [ -73.0553, 8.8862 ], [ -73.0531, 8.8889 ], [ -73.0563, 8.8903 ], [ -73.0625, 8.8986 ], [ -73.0615, 8.9072 ], [ -73.0655, 8.9138 ], [ -73.0656, 8.9172 ], [ -73.0715, 8.9185 ], [ -73.0734, 8.9205 ], [ -73.0692, 8.9254 ], [ -73.0694, 8.9369 ], [ -73.0677, 8.9433 ], [ -73.0692, 8.9497 ], [ -73.0672, 8.9582 ], [ -73.064, 8.961 ], [ -73.0665, 8.9673 ], [ -73.0648, 8.9825 ], [ -73.0539, 8.9897 ], [ -72.993, 9.0407 ], [ -72.9886, 9.0345 ], [ -72.9883, 9.0309 ], [ -72.9848, 9.0279 ], [ -72.9809, 9.0292 ], [ -72.9808, 9.0276 ], [ -72.9782, 9.0267 ], [ -72.9722, 9.0202 ], [ -72.9639, 9.0236 ], [ -72.9531, 9.025 ], [ -72.9497, 9.0238 ], [ -72.9472, 9.0277 ], [ -72.9477, 9.0299 ], [ -72.9342, 9.0433 ], [ -72.9306, 9.0448 ], [ -72.9316, 9.05 ], [ -72.938, 9.0587 ], [ -72.9418, 9.0608 ], [ -72.9453, 9.0604 ], [ -72.9496, 9.0636 ], [ -72.9529, 9.0634 ], [ -72.9538, 9.0662 ], [ -72.9602, 9.0699 ], [ -72.9591, 9.072 ], [ -72.9619, 9.0755 ], [ -72.9621, 9.0813 ], [ -72.9574, 9.0888 ], [ -72.9539, 9.0898 ], [ -72.9519, 9.0929 ], [ -72.9384, 9.0913 ], [ -72.9358, 9.0857 ], [ -72.932, 9.0835 ], [ -72.9209, 9.0889 ], [ -72.9195, 9.0944 ], [ -72.9148, 9.094 ], [ -72.9067, 9.0982 ], [ -72.8962, 9.0988 ], [ -72.8939, 9.1042 ], [ -72.888, 9.1039 ], [ -72.8858, 9.1052 ], [ -72.8834, 9.1122 ], [ -72.8866, 9.1149 ], [ -72.8843, 9.1183 ], [ -72.8829, 9.1306 ], [ -72.8803, 9.1338 ], [ -72.8677, 9.13 ], [ -72.8452, 9.1314 ], [ -72.8332, 9.1224 ], [ -72.8217, 9.1229 ], [ -72.8207, 9.1262 ], [ -72.8243, 9.1369 ], [ -72.8234, 9.1414 ], [ -72.8202, 9.1418 ], [ -72.816, 9.1367 ], [ -72.8111, 9.1356 ], [ -72.8069, 9.1284 ], [ -72.8077, 9.1248 ], [ -72.8114, 9.1228 ], [ -72.8107, 9.1203 ], [ -72.8043, 9.1231 ], [ -72.7953, 9.1222 ], [ -72.7971, 9.1188 ], [ -72.7956, 9.1164 ], [ -72.7983, 9.1085 ], [ -72.7952, 9.1041 ], [ -72.7896, 9.1075 ], [ -72.7861, 9.1159 ], [ -72.777, 9.1159 ], [ -72.7749, 9.1134 ], [ -72.7754, 9.1055 ], [ -72.7724, 9.1044 ], [ -72.7695, 9.1067 ], [ -72.7665, 9.1069 ], [ -72.7623, 9.0958 ], [ -72.763, 9.0923 ], [ -72.7723, 9.0905 ], [ -72.7725, 9.0872 ], [ -72.7686, 9.085 ], [ -72.764, 9.0869 ], [ -72.7606, 9.0818 ], [ -72.7286, 8.9344 ], [ -72.7044, 8.8349 ], [ -72.7012, 8.8137 ], [ -72.6836, 8.7614 ], [ -72.6794, 8.7532 ], [ -72.6745, 8.704 ], [ -72.6561, 8.6231 ], [ -72.6576, 8.6247 ], [ -72.659, 8.6248 ], [ -72.6583, 8.6216 ], [ -72.657, 8.6223 ], [ -72.6555, 8.6205 ], [ -72.6538, 8.6137 ], [ -72.6498, 8.613 ], [ -72.6425, 8.6083 ], [ -72.6387, 8.6081 ], [ -72.6346, 8.6005 ], [ -72.6332, 8.6013 ], [ -72.6341, 8.6039 ], [ -72.6328, 8.6067 ], [ -72.6282, 8.6059 ], [ -72.6257, 8.6012 ], [ -72.6319, 8.5997 ], [ -72.6314, 8.5972 ], [ -72.6166, 8.5947 ], [ -72.6106, 8.5848 ], [ -72.4711, 8.4316 ], [ -72.4741, 8.4301 ], [ -72.476, 8.4267 ], [ -72.4779, 8.4273 ], [ -72.4781, 8.4302 ], [ -72.4819, 8.4296 ], [ -72.4854, 8.4242 ], [ -72.4866, 8.4189 ], [ -72.4954, 8.4182 ], [ -72.4951, 8.409 ], [ -72.5, 8.4092 ], [ -72.5044, 8.4055 ], [ -72.504, 8.4006 ], [ -72.502, 8.3979 ], [ -72.508, 8.4017 ], [ -72.5106, 8.4 ], [ -72.5135, 8.4027 ], [ -72.5215, 8.4018 ], [ -72.5224, 8.3919 ], [ -72.5193, 8.3885 ], [ -72.5196, 8.3778 ], [ -72.521, 8.3683 ], [ -72.5267, 8.3658 ], [ -72.5294, 8.3586 ], [ -72.5283, 8.3489 ], [ -72.5308, 8.3405 ], [ -72.529, 8.3302 ], [ -72.5317, 8.3107 ], [ -72.5402, 8.3136 ], [ -72.5463, 8.3192 ], [ -72.5462, 8.3212 ], [ -72.548, 8.3218 ], [ -72.5484, 8.3385 ], [ -72.5574, 8.3379 ], [ -72.5616, 8.3446 ], [ -72.5707, 8.351 ], [ -72.5686, 8.3542 ], [ -72.5736, 8.3667 ], [ -72.5835, 8.3685 ], [ -72.5854, 8.3732 ], [ -72.5854, 8.3651 ], [ -72.5834, 8.3622 ], [ -72.5847, 8.3548 ], [ -72.5835, 8.3532 ], [ -72.5865, 8.3519 ], [ -72.5845, 8.3498 ], [ -72.587, 8.3483 ], [ -72.5872, 8.3463 ], [ -72.5899, 8.3456 ], [ -72.5883, 8.3427 ], [ -72.5913, 8.3418 ], [ -72.5896, 8.3388 ], [ -72.5863, 8.3419 ], [ -72.5869, 8.3381 ], [ -72.5886, 8.3377 ], [ -72.5895, 8.3315 ], [ -72.5884, 8.3282 ], [ -72.5958, 8.331 ], [ -72.6, 8.3297 ], [ -72.6034, 8.3274 ], [ -72.6031, 8.3223 ], [ -72.6098, 8.316 ], [ -72.6175, 8.3159 ], [ -72.6214, 8.3109 ], [ -72.626, 8.3128 ], [ -72.6299, 8.3079 ], [ -72.6353, 8.3074 ], [ -72.6374, 8.3121 ], [ -72.6395, 8.3095 ], [ -72.6413, 8.3117 ], [ -72.6431, 8.3111 ], [ -72.6462, 8.3095 ], [ -72.646, 8.3048 ], [ -72.6475, 8.304 ], [ -72.6449, 8.3025 ], [ -72.6496, 8.2989 ], [ -72.65, 8.296 ], [ -72.6548, 8.295 ], [ -72.6551, 8.2965 ], [ -72.6566, 8.2963 ], [ -72.6564, 8.298 ], [ -72.6633, 8.2996 ], [ -72.6657, 8.3035 ], [ -72.6703, 8.3028 ], [ -72.6712, 8.3006 ], [ -72.6743, 8.2995 ], [ -72.6744, 8.2956 ], [ -72.6765, 8.2954 ], [ -72.6756, 8.2929 ], [ -72.6785, 8.2876 ], [ -72.6907, 8.2864 ], [ -72.6936, 8.2729 ], [ -72.6978, 8.2729 ], [ -72.7039, 8.278 ], [ -72.7082, 8.2793 ], [ -72.7112, 8.2761 ], [ -72.7119, 8.2682 ], [ -72.7208, 8.2646 ], [ -72.7255, 8.2526 ], [ -72.7273, 8.2513 ], [ -72.7353, 8.2625 ], [ -72.74, 8.2651 ], [ -72.7457, 8.2658 ], [ -72.7485, 8.2705 ], [ -72.7423, 8.2926 ], [ -72.74, 8.2962 ], [ -72.7305, 8.299 ], [ -72.7242, 8.2965 ], [ -72.7224, 8.2983 ], [ -72.7203, 8.2957 ], [ -72.7127, 8.2996 ], [ -72.7174, 8.3042 ], [ -72.7169, 8.3067 ], [ -72.712, 8.3049 ], [ -72.708, 8.3077 ], [ -72.7078, 8.31 ], [ -72.7172, 8.3113 ], [ -72.7179, 8.3149 ], [ -72.7162, 8.3186 ], [ -72.7212, 8.3253 ], [ -72.7208, 8.3269 ], [ -72.7139, 8.3271 ], [ -72.7111, 8.3331 ], [ -72.7085, 8.3351 ], [ -72.7034, 8.3376 ], [ -72.6904, 8.3395 ], [ -72.6872, 8.3437 ], [ -72.6833, 8.3403 ], [ -72.6801, 8.3448 ], [ -72.6738, 8.3411 ], [ -72.6692, 8.345 ], [ -72.6652, 8.3441 ], [ -72.6557, 8.349 ], [ -72.6543, 8.3542 ], [ -72.6505, 8.3542 ], [ -72.6476, 8.3578 ], [ -72.6433, 8.3575 ], [ -72.6385, 8.3635 ], [ -72.6333, 8.3635 ], [ -72.6326, 8.3667 ], [ -72.6283, 8.3664 ], [ -72.6214, 8.3606 ], [ -72.6181, 8.3605 ], [ -72.6166, 8.3678 ], [ -72.6115, 8.37 ], [ -72.6119, 8.3735 ], [ -72.6087, 8.3771 ], [ -72.6098, 8.3828 ], [ -72.6046, 8.3895 ], [ -72.5976, 8.3922 ], [ -72.6028, 8.3988 ], [ -72.5986, 8.4014 ], [ -72.5982, 8.4033 ], [ -72.5994, 8.4043 ], [ -72.6036, 8.4034 ], [ -72.6049, 8.4049 ], [ -72.6045, 8.4078 ], [ -72.601, 8.4111 ], [ -72.6044, 8.4195 ], [ -72.6042, 8.4228 ], [ -72.6063, 8.4265 ], [ -72.611, 8.4292 ], [ -72.6198, 8.4501 ], [ -72.6208, 8.4503 ], [ -72.6215, 8.4441 ], [ -72.624, 8.4434 ], [ -72.6217, 8.4406 ], [ -72.625, 8.4396 ], [ -72.6253, 8.4371 ], [ -72.6275, 8.4365 ], [ -72.6297, 8.4331 ], [ -72.6319, 8.4341 ], [ -72.6346, 8.4318 ], [ -72.6351, 8.4282 ], [ -72.6385, 8.4279 ], [ -72.6403, 8.4229 ], [ -72.6378, 8.4206 ], [ -72.6402, 8.4203 ], [ -72.641, 8.4146 ], [ -72.6529, 8.4154 ], [ -72.6548, 8.4129 ], [ -72.6563, 8.4136 ], [ -72.6561, 8.4119 ], [ -72.6593, 8.411 ], [ -72.6725, 8.4267 ], [ -72.6777, 8.428 ], [ -72.6783, 8.4253 ], [ -72.6804, 8.4244 ], [ -72.6962, 8.4384 ], [ -72.7015, 8.431 ], [ -72.7052, 8.4319 ], [ -72.7077, 8.4292 ], [ -72.7124, 8.4336 ], [ -72.7267, 8.4255 ], [ -72.7304, 8.4254 ], [ -72.7495, 8.418 ], [ -72.7533, 8.4186 ], [ -72.7604, 8.4246 ], [ -72.7684, 8.4248 ], [ -72.7784, 8.4309 ], [ -72.7833, 8.4321 ], [ -72.7939, 8.4242 ], [ -72.8027, 8.4229 ], [ -72.809, 8.427 ], [ -72.8196, 8.422 ], [ -72.8218, 8.4185 ], [ -72.8279, 8.4193 ], [ -72.8306, 8.4146 ], [ -72.8345, 8.4147 ], [ -72.8387, 8.4165 ], [ -72.8379, 8.4186 ], [ -72.8441, 8.4194 ], [ -72.8528, 8.4347 ], [ -72.8569, 8.4347 ], [ -72.8629, 8.438 ], [ -72.883, 8.4349 ], [ -72.89, 8.4368 ], [ -72.8905, 8.4425 ], [ -72.8865, 8.4535 ], [ -72.8937, 8.4573 ], [ -72.8955, 8.466 ], [ -72.892, 8.4725 ], [ -72.8911, 8.4808 ], [ -72.887, 8.4852 ], [ -72.8795, 8.501 ], [ -72.8867, 8.5063 ], [ -72.8892, 8.5126 ], [ -72.8927, 8.5139 ], [ -72.8946, 8.5208 ], [ -72.9039, 8.5231 ], [ -72.9094, 8.5221 ], [ -72.9113, 8.52 ], [ -72.917, 8.5212 ], [ -72.9179, 8.5164 ], [ -72.9223, 8.5172 ], [ -72.9257, 8.5147 ], [ -72.9288, 8.5162 ], [ -72.9342, 8.5134 ], [ -72.9368, 8.5143 ], [ -72.9365, 8.5117 ], [ -72.9405, 8.5123 ], [ -72.9439, 8.5106 ], [ -72.9424, 8.5092 ], [ -72.9427, 8.506 ], [ -72.9397, 8.5061 ], [ -72.9358, 8.4991 ], [ -72.9393, 8.4924 ], [ -72.9413, 8.4916 ], [ -72.9429, 8.4773 ], [ -72.9647, 8.4709 ], [ -72.976, 8.4895 ], [ -72.9784, 8.4903 ], [ -72.984, 8.4883 ], [ -72.9942, 8.4955 ], [ -72.9923, 8.5108 ], [ -73.0001, 8.5205 ], [ -73.003, 8.528 ], [ -73.0067, 8.5319 ], [ -73.0091, 8.5407 ], [ -73.0161, 8.5449 ], [ -73.0178, 8.5477 ] ] ] ] } }
]
}
